[{"regional_number": "001", "national_number": "906", "name_fr": "Poussacha", "name_en": "Sprigatito", "stat_hp": "40", "stat_atq": "61", "stat_def": "54", "stat_spa": "45", "stat_spd": "45", "stat_spe": "65", "stat_sum": "310", "type_1": "plante", "type_2": "NA"}, {"regional_number": "002", "national_number": "907", "name_fr": "Matourgeon", "name_en": "Floragato", "stat_hp": "61", "stat_atq": "80", "stat_def": "63", "stat_spa": "60", "stat_spd": "63", "stat_spe": "83", "stat_sum": "410", "type_1": "plante", "type_2": "NA"}, {"regional_number": "003", "national_number": "908", "name_fr": "Miascarade", "name_en": "Meowscarada", "stat_hp": "76", "stat_atq": "110", "stat_def": "70", "stat_spa": "81", "stat_spd": "70", "stat_spe": "123", "stat_sum": "530", "type_1": "plante", "type_2": "tenebres"}, {"regional_number": "004", "national_number": "909", "name_fr": "Chochodile", "name_en": "Fuecoco", "stat_hp": "67", "stat_atq": "45", "stat_def": "59", "stat_spa": "63", "stat_spd": "40", "stat_spe": "36", "stat_sum": "310", "type_1": "feu", "type_2": "NA"}, {"regional_number": "005", "national_number": "910", "name_fr": "Crocogril", "name_en": "Crocalor", "stat_hp": "81", "stat_atq": "55", "stat_def": "78", "stat_spa": "90", "stat_spd": "58", "stat_spe": "49", "stat_sum": "411", "type_1": "feu", "type_2": "NA"}, {"regional_number": "006", "national_number": "911", "name_fr": "Fl\u00e2migator", "name_en": "Skeledirge", "stat_hp": "104", "stat_atq": "75", "stat_def": "100", "stat_spa": "110", "stat_spd": "75", "stat_spe": "66", "stat_sum": "530", "type_1": "feu", "type_2": "spectre"}, {"regional_number": "007", "national_number": "912", "name_fr": "Coiffeton", "name_en": "Quaxly", "stat_hp": "55", "stat_atq": "65", "stat_def": "45", "stat_spa": "50", "stat_spd": "45", "stat_spe": "50", "stat_sum": "310", "type_1": "eau", "type_2": "NA"}, {"regional_number": "008", "national_number": "913", "name_fr": "Canarbello", "name_en": "Quaxwell", "stat_hp": "70", "stat_atq": "85", "stat_def": "65", "stat_spa": "65", "stat_spd": "60", "stat_spe": "65", "stat_sum": "410", "type_1": "eau", "type_2": "NA"}, {"regional_number": "009", "national_number": "914", "name_fr": "Palmaval", "name_en": "Quaquaval", "stat_hp": "85", "stat_atq": "120", "stat_def": "80", "stat_spa": "85", "stat_spd": "75", "stat_spe": "85", "stat_sum": "530", "type_1": "eau", "type_2": "combat"}, {"regional_number": "010", "national_number": "915", "name_fr": "Gourmelet", "name_en": "Lechonk", "stat_hp": "54", "stat_atq": "45", "stat_def": "40", "stat_spa": "35", "stat_spd": "45", "stat_spe": "35", "stat_sum": "254", "type_1": "normal", "type_2": "NA"}, {"regional_number": "011", "national_number": "916", "name_fr": "Fragroin", "name_en": "Oinkologne", "stat_hp": "110", "stat_atq": "100", "stat_def": "75", "stat_spa": "59", "stat_spd": "80", "stat_spe": "65", "stat_sum": "489", "type_1": "normal", "type_2": "NA"}, {"regional_number": "012", "national_number": "918", "name_fr": "Tissenboule", "name_en": "Tarountula", "stat_hp": "35", "stat_atq": "41", "stat_def": "45", "stat_spa": "29", "stat_spd": "40", "stat_spe": "20", "stat_sum": "210", "type_1": "insecte", "type_2": "NA"}, {"regional_number": "013", "national_number": "919", "name_fr": "Filentrappe", "name_en": "Spidops", "stat_hp": "60", "stat_atq": "79", "stat_def": "92", "stat_spa": "52", "stat_spd": "86", "stat_spe": "35", "stat_sum": "404", "type_1": "insecte", "type_2": "NA"}, {"regional_number": "014", "national_number": "920", "name_fr": "Lilliterelle", "name_en": "Nymble", "stat_hp": "33", "stat_atq": "46", "stat_def": "40", "stat_spa": "21", "stat_spd": "25", "stat_spe": "45", "stat_sum": "210", "type_1": "insecte", "type_2": "NA"}, {"regional_number": "015", "national_number": "921", "name_fr": "Gambex", "name_en": "Lokix", "stat_hp": "71", "stat_atq": "102", "stat_def": "78", "stat_spa": "52", "stat_spd": "55", "stat_spe": "92", "stat_sum": "450", "type_1": "insecte", "type_2": "tenebres"}, {"regional_number": "016", "national_number": "187", "name_fr": "Granivol", "name_en": "Hoppip", "stat_hp": "35", "stat_atq": "35", "stat_def": "40", "stat_spa": "35", "stat_spd": "55", "stat_spe": "50", "stat_sum": "250", "type_1": "plante", "type_2": "vol"}, {"regional_number": "017", "national_number": "188", "name_fr": "Floravol", "name_en": "Skiploom", "stat_hp": "55", "stat_atq": "45", "stat_def": "50", "stat_spa": "45", "stat_spd": "65", "stat_spe": "80", "stat_sum": "340", "type_1": "plante", "type_2": "vol"}, {"regional_number": "018", "national_number": "189", "name_fr": "Cotovol", "name_en": "Jumpluff", "stat_hp": "75", "stat_atq": "55", "stat_def": "70", "stat_spa": "55", "stat_spd": "95", "stat_spe": "110", "stat_sum": "460", "type_1": "plante", "type_2": "vol"}, {"regional_number": "019", "national_number": "661", "name_fr": "Passerouge", "name_en": "Fletchling", "stat_hp": "45", "stat_atq": "50", "stat_def": "43", "stat_spa": "40", "stat_spd": "38", "stat_spe": "62", "stat_sum": "278", "type_1": "normal", "type_2": "vol"}, {"regional_number": "020", "national_number": "662", "name_fr": "Braisillon", "name_en": "Fletchinder", "stat_hp": "62", "stat_atq": "73", "stat_def": "55", "stat_spa": "56", "stat_spd": "52", "stat_spe": "84", "stat_sum": "382", "type_1": "feu", "type_2": "vol"}, {"regional_number": "021", "national_number": "663", "name_fr": "Flambusard", "name_en": "Talonflame", "stat_hp": "78", "stat_atq": "81", "stat_def": "71", "stat_spa": "74", "stat_spd": "69", "stat_spe": "126", "stat_sum": "499", "type_1": "feu", "type_2": "vol"}, {"regional_number": "022", "national_number": "954", "name_fr": "Pohm", "name_en": "Pawmi", "stat_hp": "45", "stat_atq": "50", "stat_def": "20", "stat_spa": "40", "stat_spd": "25", "stat_spe": "60", "stat_sum": "240", "type_1": "electrik", "type_2": "NA"}, {"regional_number": "023", "national_number": "955", "name_fr": "Pohmotte", "name_en": "Pawmo", "stat_hp": "60", "stat_atq": "75", "stat_def": "40", "stat_spa": "50", "stat_spd": "40", "stat_spe": "85", "stat_sum": "350", "type_1": "electrik", "type_2": "combat"}, {"regional_number": "024", "national_number": "956", "name_fr": "Pohmarmotte", "name_en": "Pawmot", "stat_hp": "70", "stat_atq": "115", "stat_def": "70", "stat_spa": "70", "stat_spd": "60", "stat_spe": "105", "stat_sum": "490", "type_1": "electrik", "type_2": "combat"}, {"regional_number": "025", "national_number": "228", "name_fr": "Malosse", "name_en": "Houndour", "stat_hp": "45", "stat_atq": "60", "stat_def": "30", "stat_spa": "80", "stat_spd": "50", "stat_spe": "65", "stat_sum": "330", "type_1": "tenebres", "type_2": "feu"}, {"regional_number": "026", "national_number": "229", "name_fr": "D\u00e9molosse", "name_en": "Houndoom", "stat_hp": "75", "stat_atq": "90", "stat_def": "50", "stat_spa": "110", "stat_spd": "80", "stat_spe": "95", "stat_sum": "500", "type_1": "tenebres", "type_2": "feu"}, {"regional_number": "027", "national_number": "734", "name_fr": "Manglouton", "name_en": "Yungoos", "stat_hp": "48", "stat_atq": "70", "stat_def": "30", "stat_spa": "30", "stat_spd": "30", "stat_spe": "45", "stat_sum": "253", "type_1": "normal", "type_2": "NA"}, {"regional_number": "028", "national_number": "735", "name_fr": "Argouste", "name_en": "Gumshoos", "stat_hp": "88", "stat_atq": "110", "stat_def": "60", "stat_spa": "55", "stat_spd": "60", "stat_spe": "45", "stat_sum": "418", "type_1": "normal", "type_2": "NA"}, {"regional_number": "029", "national_number": "819", "name_fr": "err", "name_en": "err", "stat_hp": "0", "stat_atq": "0", "stat_def": "0", "stat_spa": "0", "stat_spd": "0", "stat_spe": "0", "stat_sum": "0", "type_1": "err", "type_2": "NA"}, {"regional_number": "030", "national_number": "820", "name_fr": "err", "name_en": "err", "stat_hp": "0", "stat_atq": "0", "stat_def": "0", "stat_spa": "0", "stat_spd": "0", "stat_spe": "0", "stat_sum": "0", "type_1": "err", "type_2": "NA"}, {"regional_number": "031", "national_number": "191", "name_fr": "Tournegrin", "name_en": "Sunkern", "stat_hp": "30", "stat_atq": "30", "stat_def": "30", "stat_spa": "30", "stat_spd": "30", "stat_spe": "30", "stat_sum": "180", "type_1": "plante", "type_2": "NA"}, {"regional_number": "032", "national_number": "192", "name_fr": "H\u00e9liatronc", "name_en": "Sunflora", "stat_hp": "75", "stat_atq": "75", "stat_def": "55", "stat_spa": "105", "stat_spd": "85", "stat_spe": "30", "stat_sum": "425", "type_1": "plante", "type_2": "NA"}, {"regional_number": "033", "national_number": "401", "name_fr": "Crikzik", "name_en": "Kricketot", "stat_hp": "37", "stat_atq": "25", "stat_def": "41", "stat_spa": "25", "stat_spd": "41", "stat_spe": "25", "stat_sum": "194", "type_1": "insecte", "type_2": "NA"}, {"regional_number": "034", "national_number": "402", "name_fr": "M\u00e9lokrik", "name_en": "Kricketune", "stat_hp": "77", "stat_atq": "85", "stat_def": "51", "stat_spa": "55", "stat_spd": "51", "stat_spe": "65", "stat_sum": "384", "type_1": "insecte", "type_2": "NA"}, {"regional_number": "035", "national_number": "664", "name_fr": "L\u00e9pidonille", "name_en": "Scatterbug", "stat_hp": "38", "stat_atq": "35", "stat_def": "40", "stat_spa": "27", "stat_spd": "25", "stat_spe": "35", "stat_sum": "200", "type_1": "insecte", "type_2": "NA"}, {"regional_number": "036", "national_number": "665", "name_fr": "P\u00e9r\u00e9grain", "name_en": "Spewpa", "stat_hp": "45", "stat_atq": "22", "stat_def": "60", "stat_spa": "27", "stat_spd": "30", "stat_spe": "29", "stat_sum": "213", "type_1": "insecte", "type_2": "NA"}, {"regional_number": "037", "national_number": "666", "name_fr": "Prismillon", "name_en": "Vivillon", "stat_hp": "80", "stat_atq": "52", "stat_def": "50", "stat_spa": "90", "stat_spd": "50", "stat_spe": "89", "stat_sum": "411", "type_1": "insecte", "type_2": "vol"}, {"regional_number": "038", "national_number": "415", "name_fr": "Apitrini", "name_en": "Combee", "stat_hp": "30", "stat_atq": "30", "stat_def": "42", "stat_spa": "30", "stat_spd": "42", "stat_spe": "70", "stat_sum": "244", "type_1": "insecte", "type_2": "vol"}, {"regional_number": "039", "national_number": "416", "name_fr": "Apireine", "name_en": "Vespiquen", "stat_hp": "70", "stat_atq": "80", "stat_def": "102", "stat_spa": "80", "stat_spd": "102", "stat_spe": "40", "stat_sum": "474", "type_1": "insecte", "type_2": "vol"}, {"regional_number": "040", "national_number": "821", "name_fr": "Minisange", "name_en": "Rookidee", "stat_hp": "38", "stat_atq": "47", "stat_def": "35", "stat_spa": "33", "stat_spd": "35", "stat_spe": "57", "stat_sum": "245", "type_1": "vol", "type_2": "NA"}, {"regional_number": "041", "national_number": "822", "name_fr": "Bleuseille", "name_en": "Corvisquire", "stat_hp": "68", "stat_atq": "67", "stat_def": "55", "stat_spa": "43", "stat_spd": "55", "stat_spe": "77", "stat_sum": "365", "type_1": "vol", "type_2": "NA"}, {"regional_number": "042", "national_number": "823", "name_fr": "Corvaillus", "name_en": "Corviknight", "stat_hp": "98", "stat_atq": "87", "stat_def": "105", "stat_spa": "53", "stat_spd": "85", "stat_spe": "67", "stat_sum": "495", "type_1": "vol", "type_2": "acier"}, {"regional_number": "043", "national_number": "440", "name_fr": "Ptiravi", "name_en": "Happiny", "stat_hp": "100", "stat_atq": "5", "stat_def": "5", "stat_spa": "15", "stat_spd": "65", "stat_spe": "30", "stat_sum": "220", "type_1": "normal", "type_2": "NA"}, {"regional_number": "044", "national_number": "113", "name_fr": "Leveinard", "name_en": "Chansey", "stat_hp": "250", "stat_atq": "5", "stat_def": "5", "stat_spa": "35", "stat_spd": "105", "stat_spe": "50", "stat_sum": "450", "type_1": "normal", "type_2": "NA"}, {"regional_number": "045", "national_number": "242", "name_fr": "Leuphorie", "name_en": "Blissey", "stat_hp": "255", "stat_atq": "10", "stat_def": "10", "stat_spa": "75", "stat_spd": "135", "stat_spe": "55", "stat_sum": "540", "type_1": "normal", "type_2": "NA"}, {"regional_number": "046", "national_number": "298", "name_fr": "Azurill", "name_en": "Azurill", "stat_hp": "50", "stat_atq": "20", "stat_def": "40", "stat_spa": "20", "stat_spd": "40", "stat_spe": "20", "stat_sum": "190", "type_1": "normal", "type_2": "fee"}, {"regional_number": "047", "national_number": "183", "name_fr": "Marill", "name_en": "Marill", "stat_hp": "70", "stat_atq": "20", "stat_def": "50", "stat_spa": "20", "stat_spd": "50", "stat_spe": "40", "stat_sum": "250", "type_1": "eau", "type_2": "fee"}, {"regional_number": "048", "national_number": "184", "name_fr": "Azumarill", "name_en": "Azumarill", "stat_hp": "100", "stat_atq": "50", "stat_def": "80", "stat_spa": "60", "stat_spd": "80", "stat_spe": "50", "stat_sum": "420", "type_1": "eau", "type_2": "fee"}, {"regional_number": "049", "national_number": "283", "name_fr": "Arakdo", "name_en": "Surskit", "stat_hp": "40", "stat_atq": "30", "stat_def": "32", "stat_spa": "50", "stat_spd": "52", "stat_spe": "65", "stat_sum": "269", "type_1": "insecte", "type_2": "eau"}, {"regional_number": "050", "national_number": "284", "name_fr": "Maskadra", "name_en": "Masquerain", "stat_hp": "70", "stat_atq": "60", "stat_def": "62", "stat_spa": "100", "stat_spd": "82", "stat_spe": "80", "stat_sum": "454", "type_1": "insecte", "type_2": "vol"}, {"regional_number": "051", "national_number": "418", "name_fr": "Must\u00e9bou\u00e9e", "name_en": "Buizel", "stat_hp": "55", "stat_atq": "65", "stat_def": "35", "stat_spa": "60", "stat_spd": "30", "stat_spe": "85", "stat_sum": "330", "type_1": "eau", "type_2": "NA"}, {"regional_number": "052", "national_number": "419", "name_fr": "Must\u00e9flott", "name_en": "Floatzel", "stat_hp": "85", "stat_atq": "105", "stat_def": "55", "stat_spa": "85", "stat_spd": "50", "stat_spe": "115", "stat_sum": "495", "type_1": "eau", "type_2": "NA"}, {"regional_number": "053", "national_number": "194", "name_fr": "Axoloto", "name_en": "Wooper", "stat_hp": "55", "stat_atq": "45", "stat_def": "45", "stat_spa": "25", "stat_spd": "25", "stat_spe": "15", "stat_sum": "210", "type_1": "poison", "type_2": "sol"}, {"regional_number": "054", "national_number": "1009", "name_fr": "Terraiste", "name_en": "Clodsire", "stat_hp": "130", "stat_atq": "75", "stat_def": "60", "stat_spa": "45", "stat_spd": "100", "stat_spe": "20", "stat_sum": "430", "type_1": "poison", "type_2": "sol"}, {"regional_number": "055", "national_number": "054", "name_fr": "Psykokwak", "name_en": "Psyduck", "stat_hp": "50", "stat_atq": "52", "stat_def": "48", "stat_spa": "65", "stat_spd": "50", "stat_spe": "55", "stat_sum": "320", "type_1": "eau", "type_2": "NA"}, {"regional_number": "056", "national_number": "055", "name_fr": "Akwakwak", "name_en": "Golduck", "stat_hp": "80", "stat_atq": "82", "stat_def": "78", "stat_spa": "95", "stat_spd": "80", "stat_spe": "85", "stat_sum": "500", "type_1": "eau", "type_2": "NA"}, {"regional_number": "057", "national_number": "833", "name_fr": "Kh\u00e9locrok", "name_en": "Chewtle", "stat_hp": "50", "stat_atq": "64", "stat_def": "50", "stat_spa": "38", "stat_spd": "38", "stat_spe": "44", "stat_sum": "284", "type_1": "eau", "type_2": "NA"}, {"regional_number": "058", "national_number": "834", "name_fr": "Torgamord", "name_en": "Drednaw", "stat_hp": "90", "stat_atq": "115", "stat_def": "90", "stat_spa": "48", "stat_spd": "68", "stat_spe": "74", "stat_sum": "485", "type_1": "eau", "type_2": "roche"}, {"regional_number": "059", "national_number": "174", "name_fr": "Toudoudou", "name_en": "Igglybuff", "stat_hp": "90", "stat_atq": "30", "stat_def": "15", "stat_spa": "40", "stat_spd": "20", "stat_spe": "15", "stat_sum": "210", "type_1": "normal", "type_2": "fee"}, {"regional_number": "060", "national_number": "039", "name_fr": "Rondoudou", "name_en": "Jigglypuff", "stat_hp": "115", "stat_atq": "45", "stat_def": "20", "stat_spa": "45", "stat_spd": "25", "stat_spe": "20", "stat_sum": "270", "type_1": "normal", "type_2": "fee"}, {"regional_number": "061", "national_number": "040", "name_fr": "Grodoudou", "name_en": "Wigglytuff", "stat_hp": "140", "stat_atq": "70", "stat_def": "45", "stat_spa": "85", "stat_spd": "50", "stat_spe": "45", "stat_sum": "435", "type_1": "normal", "type_2": "fee"}, {"regional_number": "062", "national_number": "280", "name_fr": "Tarsal", "name_en": "Ralts", "stat_hp": "28", "stat_atq": "25", "stat_def": "25", "stat_spa": "45", "stat_spd": "35", "stat_spe": "40", "stat_sum": "198", "type_1": "psy", "type_2": "fee"}, {"regional_number": "063", "national_number": "281", "name_fr": "Kirlia", "name_en": "Kirlia", "stat_hp": "38", "stat_atq": "35", "stat_def": "35", "stat_spa": "65", "stat_spd": "55", "stat_spe": "50", "stat_sum": "278", "type_1": "psy", "type_2": "fee"}, {"regional_number": "064", "national_number": "282", "name_fr": "Gardevoir", "name_en": "Gardevoir", "stat_hp": "68", "stat_atq": "65", "stat_def": "65", "stat_spa": "125", "stat_spd": "115", "stat_spe": "80", "stat_sum": "518", "type_1": "psy", "type_2": "fee"}, {"regional_number": "065", "national_number": "475", "name_fr": "Gallame", "name_en": "Gallade", "stat_hp": "68", "stat_atq": "125", "stat_def": "65", "stat_spa": "65", "stat_spd": "115", "stat_spe": "80", "stat_sum": "518", "type_1": "psy", "type_2": "combat"}, {"regional_number": "066", "national_number": "096", "name_fr": "Soporifik", "name_en": "Drowzee", "stat_hp": "60", "stat_atq": "48", "stat_def": "45", "stat_spa": "43", "stat_spd": "90", "stat_spe": "42", "stat_sum": "328", "type_1": "psy", "type_2": "NA"}, {"regional_number": "067", "national_number": "097", "name_fr": "Hypnomade", "name_en": "Hypno", "stat_hp": "85", "stat_atq": "73", "stat_def": "70", "stat_spa": "73", "stat_spd": "115", "stat_spe": "67", "stat_sum": "483", "type_1": "psy", "type_2": "NA"}, {"regional_number": "068", "national_number": "092", "name_fr": "Fantominus", "name_en": "Gastly", "stat_hp": "30", "stat_atq": "35", "stat_def": "30", "stat_spa": "100", "stat_spd": "35", "stat_spe": "80", "stat_sum": "310", "type_1": "spectre", "type_2": "poison"}, {"regional_number": "069", "national_number": "093", "name_fr": "Spectrum", "name_en": "Haunter", "stat_hp": "45", "stat_atq": "50", "stat_def": "45", "stat_spa": "115", "stat_spd": "55", "stat_spe": "95", "stat_sum": "405", "type_1": "spectre", "type_2": "poison"}, {"regional_number": "070", "national_number": "094", "name_fr": "Ectoplasma", "name_en": "Gengar", "stat_hp": "60", "stat_atq": "65", "stat_def": "60", "stat_spa": "130", "stat_spd": "75", "stat_spe": "110", "stat_sum": "500", "type_1": "spectre", "type_2": "poison"}, {"regional_number": "071", "national_number": "945", "name_fr": "Compagnol", "name_en": "Tandemaus", "stat_hp": "50", "stat_atq": "50", "stat_def": "45", "stat_spa": "40", "stat_spd": "45", "stat_spe": "75", "stat_sum": "305", "type_1": "normal", "type_2": "NA"}, {"regional_number": "072", "national_number": "946", "name_fr": "Famignol", "name_en": "Maushold", "stat_hp": "74", "stat_atq": "75", "stat_def": "70", "stat_spa": "65", "stat_spd": "75", "stat_spe": "111", "stat_sum": "470", "type_1": "normal", "type_2": "NA"}, {"regional_number": "073", "national_number": "172", "name_fr": "Pichu", "name_en": "Pichu", "stat_hp": "20", "stat_atq": "40", "stat_def": "15", "stat_spa": "35", "stat_spd": "35", "stat_spe": "60", "stat_sum": "205", "type_1": "electrik", "type_2": "NA"}, {"regional_number": "074", "national_number": "025", "name_fr": "Pikachu", "name_en": "Pikachu", "stat_hp": "35", "stat_atq": "55", "stat_def": "40", "stat_spa": "50", "stat_spd": "50", "stat_spe": "90", "stat_sum": "320", "type_1": "electrik", "type_2": "NA"}, {"regional_number": "075", "national_number": "026", "name_fr": "Raichu", "name_en": "Raichu", "stat_hp": "60", "stat_atq": "90", "stat_def": "55", "stat_spa": "90", "stat_spd": "80", "stat_spe": "110", "stat_sum": "485", "type_1": "electrik", "type_2": "NA"}, {"regional_number": "076", "national_number": "970", "name_fr": "P\u00e2tachiot", "name_en": "Fidough", "stat_hp": "37", "stat_atq": "55", "stat_def": "70", "stat_spa": "30", "stat_spd": "55", "stat_spe": "65", "stat_sum": "312", "type_1": "fee", "type_2": "NA"}, {"regional_number": "077", "national_number": "971", "name_fr": "Briochien", "name_en": "Dachsbun", "stat_hp": "57", "stat_atq": "80", "stat_def": "115", "stat_spa": "50", "stat_spd": "80", "stat_spe": "95", "stat_sum": "477", "type_1": "fee", "type_2": "NA"}, {"regional_number": "078", "national_number": "287", "name_fr": "Parecool", "name_en": "Slakoth", "stat_hp": "60", "stat_atq": "60", "stat_def": "60", "stat_spa": "35", "stat_spd": "35", "stat_spe": "30", "stat_sum": "280", "type_1": "normal", "type_2": "NA"}, {"regional_number": "079", "national_number": "288", "name_fr": "Vigoroth", "name_en": "Vigoroth", "stat_hp": "80", "stat_atq": "80", "stat_def": "80", "stat_spa": "55", "stat_spd": "55", "stat_spe": "90", "stat_sum": "440", "type_1": "normal", "type_2": "NA"}, {"regional_number": "080", "national_number": "289", "name_fr": "Monafl\u00e8mit", "name_en": "Slaking", "stat_hp": "150", "stat_atq": "160", "stat_def": "100", "stat_spa": "95", "stat_spd": "65", "stat_spe": "100", "stat_sum": "670", "type_1": "normal", "type_2": "NA"}, {"regional_number": "081", "national_number": "761", "name_fr": "Croquine", "name_en": "Bounsweet", "stat_hp": "42", "stat_atq": "30", "stat_def": "38", "stat_spa": "30", "stat_spd": "38", "stat_spe": "32", "stat_sum": "210", "type_1": "plante", "type_2": "NA"}, {"regional_number": "082", "national_number": "762", "name_fr": "Candine", "name_en": "Steenee", "stat_hp": "52", "stat_atq": "40", "stat_def": "48", "stat_spa": "40", "stat_spd": "48", "stat_spe": "62", "stat_sum": "290", "type_1": "plante", "type_2": "NA"}, {"regional_number": "083", "national_number": "763", "name_fr": "Sucreine", "name_en": "Tsareena", "stat_hp": "72", "stat_atq": "120", "stat_def": "98", "stat_spa": "50", "stat_spd": "98", "stat_spe": "72", "stat_sum": "510", "type_1": "plante", "type_2": "NA"}, {"regional_number": "084", "national_number": "935", "name_fr": "Olivini", "name_en": "Smoliv", "stat_hp": "41", "stat_atq": "35", "stat_def": "45", "stat_spa": "58", "stat_spd": "51", "stat_spe": "30", "stat_sum": "260", "type_1": "plante", "type_2": "normal"}, {"regional_number": "085", "national_number": "936", "name_fr": "Olivado", "name_en": "Dolliv", "stat_hp": "52", "stat_atq": "53", "stat_def": "60", "stat_spa": "78", "stat_spd": "78", "stat_spe": "33", "stat_sum": "354", "type_1": "plante", "type_2": "normal"}, {"regional_number": "086", "national_number": "937", "name_fr": "Arboliva", "name_en": "Arboliva", "stat_hp": "78", "stat_atq": "69", "stat_def": "90", "stat_spa": "125", "stat_spd": "109", "stat_spe": "39", "stat_sum": "510", "type_1": "plante", "type_2": "normal"}, {"regional_number": "087", "national_number": "438", "name_fr": "Manza\u00ef", "name_en": "Bonsly", "stat_hp": "50", "stat_atq": "80", "stat_def": "95", "stat_spa": "10", "stat_spd": "45", "stat_spe": "10", "stat_sum": "290", "type_1": "roche", "type_2": "NA"}, {"regional_number": "088", "national_number": "185", "name_fr": "Simularbre", "name_en": "Sudowoodo", "stat_hp": "70", "stat_atq": "100", "stat_def": "115", "stat_spa": "30", "stat_spd": "65", "stat_spe": "30", "stat_sum": "410", "type_1": "roche", "type_2": "NA"}, {"regional_number": "089", "national_number": "744", "name_fr": "Rocabot", "name_en": "Rockruff", "stat_hp": "45", "stat_atq": "65", "stat_def": "40", "stat_spa": "30", "stat_spd": "40", "stat_spe": "60", "stat_sum": "280", "type_1": "roche", "type_2": "NA"}, {"regional_number": "090", "national_number": "745", "name_fr": "Lougaroc", "name_en": "Lycanroc", "stat_hp": "75", "stat_atq": "115", "stat_def": "65", "stat_spa": "55", "stat_spd": "65", "stat_spe": "112", "stat_sum": "487", "type_1": "roche", "type_2": "NA"}, {"regional_number": "091", "national_number": "837", "name_fr": "Charbi", "name_en": "Rolycoly", "stat_hp": "30", "stat_atq": "40", "stat_def": "50", "stat_spa": "40", "stat_spd": "50", "stat_spe": "30", "stat_sum": "240", "type_1": "roche", "type_2": "NA"}, {"regional_number": "092", "national_number": "838", "name_fr": "Wagomine", "name_en": "Carkol", "stat_hp": "80", "stat_atq": "60", "stat_def": "90", "stat_spa": "60", "stat_spd": "70", "stat_spe": "50", "stat_sum": "410", "type_1": "roche", "type_2": "feu"}, {"regional_number": "093", "national_number": "839", "name_fr": "Monthracite", "name_en": "Coalossal", "stat_hp": "110", "stat_atq": "80", "stat_def": "120", "stat_spa": "80", "stat_spd": "90", "stat_spe": "30", "stat_sum": "510", "type_1": "roche", "type_2": "feu"}, {"regional_number": "094", "national_number": "403", "name_fr": "Lixy", "name_en": "Shinx", "stat_hp": "45", "stat_atq": "65", "stat_def": "34", "stat_spa": "40", "stat_spd": "34", "stat_spe": "45", "stat_sum": "263", "type_1": "electrik", "type_2": "NA"}, {"regional_number": "095", "national_number": "404", "name_fr": "Luxio", "name_en": "Luxio", "stat_hp": "60", "stat_atq": "85", "stat_def": "49", "stat_spa": "60", "stat_spd": "49", "stat_spe": "60", "stat_sum": "363", "type_1": "electrik", "type_2": "NA"}, {"regional_number": "096", "national_number": "405", "name_fr": "Luxray", "name_en": "Luxray", "stat_hp": "80", "stat_atq": "120", "stat_def": "79", "stat_spa": "95", "stat_spd": "79", "stat_spe": "70", "stat_sum": "523", "type_1": "electrik", "type_2": "NA"}, {"regional_number": "097", "national_number": "396", "name_fr": "err", "name_en": "err", "stat_hp": "0", "stat_atq": "0", "stat_def": "0", "stat_spa": "0", "stat_spd": "0", "stat_spe": "0", "stat_sum": "0", "type_1": "err", "type_2": "NA"}, {"regional_number": "098", "national_number": "397", "name_fr": "err", "name_en": "err", "stat_hp": "0", "stat_atq": "0", "stat_def": "0", "stat_spa": "0", "stat_spd": "0", "stat_spe": "0", "stat_sum": "0", "type_1": "err", "type_2": "NA"}, {"regional_number": "099", "national_number": "398", "name_fr": "err", "name_en": "err", "stat_hp": "0", "stat_atq": "0", "stat_def": "0", "stat_spa": "0", "stat_spd": "0", "stat_spe": "0", "stat_sum": "0", "type_1": "err", "type_2": "NA"}, {"regional_number": "100", "national_number": "741", "name_fr": "Plumeline", "name_en": "Oricorio", "stat_hp": "75", "stat_atq": "70", "stat_def": "70", "stat_spa": "98", "stat_spd": "70", "stat_spe": "93", "stat_sum": "476", "type_1": "feu", "type_2": "vol"}, {"regional_number": "101", "national_number": "179", "name_fr": "Wattouat", "name_en": "Mareep", "stat_hp": "55", "stat_atq": "40", "stat_def": "40", "stat_spa": "65", "stat_spd": "45", "stat_spe": "35", "stat_sum": "280", "type_1": "electrik", "type_2": "NA"}, {"regional_number": "102", "national_number": "180", "name_fr": "Lainergie", "name_en": "Flaaffy", "stat_hp": "70", "stat_atq": "55", "stat_def": "55", "stat_spa": "80", "stat_spd": "60", "stat_spe": "45", "stat_sum": "365", "type_1": "electrik", "type_2": "NA"}, {"regional_number": "103", "national_number": "181", "name_fr": "Pharamp", "name_en": "Ampharos", "stat_hp": "90", "stat_atq": "75", "stat_def": "85", "stat_spa": "115", "stat_spd": "90", "stat_spe": "55", "stat_sum": "510", "type_1": "electrik", "type_2": "NA"}, {"regional_number": "104", "national_number": "548", "name_fr": "Chlorobule", "name_en": "Petilil", "stat_hp": "45", "stat_atq": "35", "stat_def": "50", "stat_spa": "70", "stat_spd": "50", "stat_spe": "30", "stat_sum": "280", "type_1": "plante", "type_2": "NA"}, {"regional_number": "105", "national_number": "549", "name_fr": "Fragilady", "name_en": "Lilligant", "stat_hp": "70", "stat_atq": "60", "stat_def": "75", "stat_spa": "110", "stat_spd": "75", "stat_spe": "90", "stat_sum": "480", "type_1": "plante", "type_2": "NA"}, {"regional_number": "106", "national_number": "285", "name_fr": "Balignon", "name_en": "Shroomish", "stat_hp": "60", "stat_atq": "40", "stat_def": "60", "stat_spa": "40", "stat_spd": "60", "stat_spe": "35", "stat_sum": "295", "type_1": "plante", "type_2": "NA"}, {"regional_number": "107", "national_number": "286", "name_fr": "Chapignon", "name_en": "Breloom", "stat_hp": "60", "stat_atq": "130", "stat_def": "80", "stat_spa": "60", "stat_spd": "60", "stat_spe": "70", "stat_sum": "460", "type_1": "plante", "type_2": "combat"}, {"regional_number": "108", "national_number": "840", "name_fr": "Verpom", "name_en": "Applin", "stat_hp": "40", "stat_atq": "40", "stat_def": "80", "stat_spa": "40", "stat_spd": "40", "stat_spe": "20", "stat_sum": "260", "type_1": "plante", "type_2": "dragon"}, {"regional_number": "109", "national_number": "841", "name_fr": "Pomdrapi", "name_en": "Flapple", "stat_hp": "70", "stat_atq": "110", "stat_def": "80", "stat_spa": "95", "stat_spd": "60", "stat_spe": "70", "stat_sum": "485", "type_1": "plante", "type_2": "dragon"}, {"regional_number": "110", "national_number": "842", "name_fr": "Dratatin", "name_en": "Appletun", "stat_hp": "110", "stat_atq": "85", "stat_def": "80", "stat_spa": "100", "stat_spd": "80", "stat_spe": "30", "stat_sum": "485", "type_1": "plante", "type_2": "dragon"}, {"regional_number": "111", "national_number": "325", "name_fr": "Spoink", "name_en": "Spoink", "stat_hp": "60", "stat_atq": "25", "stat_def": "35", "stat_spa": "70", "stat_spd": "80", "stat_spe": "60", "stat_sum": "330", "type_1": "psy", "type_2": "NA"}, {"regional_number": "112", "national_number": "326", "name_fr": "Groret", "name_en": "Grumpig", "stat_hp": "80", "stat_atq": "45", "stat_def": "65", "stat_spa": "90", "stat_spd": "110", "stat_spe": "80", "stat_sum": "470", "type_1": "psy", "type_2": "NA"}, {"regional_number": "113", "national_number": "960", "name_fr": "Tapato\u00e8s", "name_en": "Squawkabilly", "stat_hp": "82", "stat_atq": "96", "stat_def": "51", "stat_spa": "45", "stat_spd": "51", "stat_spe": "92", "stat_sum": "417", "type_1": "normal", "type_2": "vol"}, {"regional_number": "114", "national_number": "200", "name_fr": "Feufor\u00eave", "name_en": "Misdreavus", "stat_hp": "60", "stat_atq": "60", "stat_def": "60", "stat_spa": "85", "stat_spd": "85", "stat_spe": "85", "stat_sum": "435", "type_1": "spectre", "type_2": "NA"}, {"regional_number": "115", "national_number": "429", "name_fr": "Magir\u00eave", "name_en": "Mismagius", "stat_hp": "60", "stat_atq": "60", "stat_def": "60", "stat_spa": "105", "stat_spd": "105", "stat_spe": "105", "stat_sum": "495", "type_1": "spectre", "type_2": "NA"}, {"regional_number": "116", "national_number": "296", "name_fr": "Makuhita", "name_en": "Makuhita", "stat_hp": "72", "stat_atq": "60", "stat_def": "30", "stat_spa": "20", "stat_spd": "30", "stat_spe": "25", "stat_sum": "237", "type_1": "combat", "type_2": "NA"}, {"regional_number": "117", "national_number": "297", "name_fr": "Hariyama", "name_en": "Hariyama", "stat_hp": "144", "stat_atq": "120", "stat_def": "60", "stat_spa": "40", "stat_spd": "60", "stat_spe": "50", "stat_sum": "474", "type_1": "combat", "type_2": "NA"}, {"regional_number": "118", "national_number": "739", "name_fr": "Crabagarre", "name_en": "Crabrawler", "stat_hp": "47", "stat_atq": "82", "stat_def": "57", "stat_spa": "42", "stat_spd": "47", "stat_spe": "63", "stat_sum": "338", "type_1": "combat", "type_2": "NA"}, {"regional_number": "119", "national_number": "740", "name_fr": "Crabominable", "name_en": "Crabominable", "stat_hp": "97", "stat_atq": "132", "stat_def": "77", "stat_spa": "62", "stat_spd": "67", "stat_spe": "43", "stat_sum": "478", "type_1": "combat", "type_2": "glace"}, {"regional_number": "120", "national_number": "757", "name_fr": "Tritox", "name_en": "Salandit", "stat_hp": "48", "stat_atq": "44", "stat_def": "40", "stat_spa": "71", "stat_spd": "40", "stat_spe": "77", "stat_sum": "320", "type_1": "poison", "type_2": "feu"}, {"regional_number": "121", "national_number": "758", "name_fr": "Malamandre", "name_en": "Salazzle", "stat_hp": "68", "stat_atq": "64", "stat_def": "60", "stat_spa": "111", "stat_spd": "60", "stat_spe": "117", "stat_sum": "480", "type_1": "poison", "type_2": "feu"}, {"regional_number": "122", "national_number": "231", "name_fr": "Phanpy", "name_en": "Phanpy", "stat_hp": "90", "stat_atq": "60", "stat_def": "60", "stat_spa": "40", "stat_spd": "40", "stat_spe": "40", "stat_sum": "330", "type_1": "sol", "type_2": "NA"}, {"regional_number": "123", "national_number": "232", "name_fr": "Donphan", "name_en": "Donphan", "stat_hp": "90", "stat_atq": "120", "stat_def": "120", "stat_spa": "60", "stat_spd": "60", "stat_spe": "50", "stat_sum": "500", "type_1": "sol", "type_2": "NA"}, {"regional_number": "124", "national_number": "878", "name_fr": "Charibari", "name_en": "Cufant", "stat_hp": "72", "stat_atq": "80", "stat_def": "49", "stat_spa": "40", "stat_spd": "49", "stat_spe": "40", "stat_sum": "330", "type_1": "acier", "type_2": "NA"}, {"regional_number": "125", "national_number": "879", "name_fr": "Pachyradjah", "name_en": "Copperajah", "stat_hp": "122", "stat_atq": "130", "stat_def": "69", "stat_spa": "80", "stat_spd": "69", "stat_spe": "30", "stat_sum": "500", "type_1": "acier", "type_2": "NA"}, {"regional_number": "126", "national_number": "443", "name_fr": "Griknot", "name_en": "Gible", "stat_hp": "58", "stat_atq": "70", "stat_def": "45", "stat_spa": "40", "stat_spd": "45", "stat_spe": "42", "stat_sum": "300", "type_1": "dragon", "type_2": "sol"}, {"regional_number": "127", "national_number": "444", "name_fr": "Carmache", "name_en": "Gabite", "stat_hp": "68", "stat_atq": "90", "stat_def": "65", "stat_spa": "50", "stat_spd": "55", "stat_spe": "82", "stat_sum": "410", "type_1": "dragon", "type_2": "sol"}, {"regional_number": "128", "national_number": "445", "name_fr": "Carchacrok", "name_en": "Garchomp", "stat_hp": "108", "stat_atq": "130", "stat_def": "95", "stat_spa": "80", "stat_spd": "85", "stat_spe": "102", "stat_sum": "600", "type_1": "dragon", "type_2": "sol"}, {"regional_number": "129", "national_number": "963", "name_fr": "Selutin", "name_en": "Nacli", "stat_hp": "55", "stat_atq": "55", "stat_def": "75", "stat_spa": "35", "stat_spd": "35", "stat_spe": "25", "stat_sum": "280", "type_1": "roche", "type_2": "NA"}, {"regional_number": "130", "national_number": "964", "name_fr": "Amassel", "name_en": "Naclstack", "stat_hp": "60", "stat_atq": "60", "stat_def": "100", "stat_spa": "35", "stat_spd": "65", "stat_spe": "35", "stat_sum": "355", "type_1": "roche", "type_2": "NA"}, {"regional_number": "131", "national_number": "965", "name_fr": "Gigansel", "name_en": "Garganacl", "stat_hp": "100", "stat_atq": "100", "stat_def": "130", "stat_spa": "45", "stat_spd": "90", "stat_spe": "35", "stat_sum": "500", "type_1": "roche", "type_2": "NA"}, {"regional_number": "132", "national_number": "278", "name_fr": "Go\u00e9lise", "name_en": "Wingull", "stat_hp": "40", "stat_atq": "30", "stat_def": "30", "stat_spa": "55", "stat_spd": "30", "stat_spe": "85", "stat_sum": "270", "type_1": "eau", "type_2": "vol"}, {"regional_number": "133", "national_number": "279", "name_fr": "Bekipan", "name_en": "Pelipper", "stat_hp": "60", "stat_atq": "50", "stat_def": "100", "stat_spa": "95", "stat_spd": "70", "stat_spe": "65", "stat_sum": "440", "type_1": "eau", "type_2": "vol"}, {"regional_number": "134", "national_number": "129", "name_fr": "Magicarpe", "name_en": "Magikarp", "stat_hp": "20", "stat_atq": "10", "stat_def": "55", "stat_spa": "15", "stat_spd": "20", "stat_spe": "80", "stat_sum": "200", "type_1": "eau", "type_2": "NA"}, {"regional_number": "135", "national_number": "130", "name_fr": "L\u00e9viator", "name_en": "Gyarados", "stat_hp": "95", "stat_atq": "125", "stat_def": "79", "stat_spa": "60", "stat_spd": "100", "stat_spe": "81", "stat_sum": "540", "type_1": "eau", "type_2": "vol"}, {"regional_number": "136", "national_number": "846", "name_fr": "Embrochet", "name_en": "Arrokuda", "stat_hp": "41", "stat_atq": "63", "stat_def": "40", "stat_spa": "40", "stat_spd": "30", "stat_spe": "66", "stat_sum": "280", "type_1": "eau", "type_2": "NA"}, {"regional_number": "137", "national_number": "847", "name_fr": "Hastacuda", "name_en": "Barraskewda", "stat_hp": "61", "stat_atq": "123", "stat_def": "60", "stat_spa": "60", "stat_spd": "50", "stat_spe": "136", "stat_sum": "490", "type_1": "eau", "type_2": "NA"}, {"regional_number": "138", "national_number": "550", "name_fr": "Bargantua", "name_en": "Basculin", "stat_hp": "70", "stat_atq": "92", "stat_def": "65", "stat_spa": "80", "stat_spd": "55", "stat_spe": "98", "stat_sum": "460", "type_1": "eau", "type_2": "NA"}, {"regional_number": "139", "national_number": "316", "name_fr": "Gloupti", "name_en": "Gulpin", "stat_hp": "70", "stat_atq": "43", "stat_def": "53", "stat_spa": "43", "stat_spd": "53", "stat_spe": "40", "stat_sum": "302", "type_1": "poison", "type_2": "NA"}, {"regional_number": "140", "national_number": "317", "name_fr": "Avaltout", "name_en": "Swalot", "stat_hp": "100", "stat_atq": "73", "stat_def": "83", "stat_spa": "73", "stat_spd": "83", "stat_spe": "55", "stat_sum": "467", "type_1": "poison", "type_2": "NA"}, {"regional_number": "141", "national_number": "052", "name_fr": "Miaouss", "name_en": "Meowth", "stat_hp": "40", "stat_atq": "45", "stat_def": "35", "stat_spa": "40", "stat_spd": "40", "stat_spe": "90", "stat_sum": "290", "type_1": "normal", "type_2": "NA"}, {"regional_number": "142", "national_number": "053", "name_fr": "Persian", "name_en": "Persian", "stat_hp": "65", "stat_atq": "70", "stat_def": "60", "stat_spa": "65", "stat_spd": "65", "stat_spe": "115", "stat_sum": "440", "type_1": "normal", "type_2": "NA"}, {"regional_number": "143", "national_number": "425", "name_fr": "Baudrive", "name_en": "Drifloon", "stat_hp": "90", "stat_atq": "50", "stat_def": "34", "stat_spa": "60", "stat_spd": "44", "stat_spe": "70", "stat_sum": "348", "type_1": "spectre", "type_2": "vol"}, {"regional_number": "144", "national_number": "426", "name_fr": "Grodrive", "name_en": "Drifblim", "stat_hp": "150", "stat_atq": "80", "stat_def": "44", "stat_spa": "90", "stat_spd": "54", "stat_spe": "80", "stat_sum": "498", "type_1": "spectre", "type_2": "vol"}, {"regional_number": "145", "national_number": "669", "name_fr": "Flab\u00e9b\u00e9", "name_en": "Flab\u00e9b\u00e9", "stat_hp": "44", "stat_atq": "38", "stat_def": "39", "stat_spa": "61", "stat_spd": "79", "stat_spe": "42", "stat_sum": "303", "type_1": "fee", "type_2": "NA"}, {"regional_number": "146", "national_number": "670", "name_fr": "Floette", "name_en": "Floette", "stat_hp": "54", "stat_atq": "45", "stat_def": "47", "stat_spa": "75", "stat_spd": "98", "stat_spe": "52", "stat_sum": "371", "type_1": "fee", "type_2": "NA"}, {"regional_number": "147", "national_number": "671", "name_fr": "Florges", "name_en": "Florges", "stat_hp": "78", "stat_atq": "65", "stat_def": "68", "stat_spa": "112", "stat_spd": "154", "stat_spe": "75", "stat_sum": "552", "type_1": "fee", "type_2": "NA"}, {"regional_number": "148", "national_number": "050", "name_fr": "Taupiqueur", "name_en": "Diglett", "stat_hp": "10", "stat_atq": "55", "stat_def": "25", "stat_spa": "35", "stat_spd": "45", "stat_spe": "95", "stat_sum": "265", "type_1": "sol", "type_2": "NA"}, {"regional_number": "149", "national_number": "051", "name_fr": "Triopikeur", "name_en": "Dugtrio", "stat_hp": "35", "stat_atq": "100", "stat_def": "50", "stat_spa": "50", "stat_spd": "70", "stat_spe": "120", "stat_sum": "425", "type_1": "sol", "type_2": "NA"}, {"regional_number": "150", "national_number": "324", "name_fr": "Chartor", "name_en": "Torkoal", "stat_hp": "70", "stat_atq": "85", "stat_def": "140", "stat_spa": "85", "stat_spd": "70", "stat_spe": "20", "stat_sum": "470", "type_1": "feu", "type_2": "NA"}, {"regional_number": "151", "national_number": "322", "name_fr": "Chamallot", "name_en": "Numel", "stat_hp": "60", "stat_atq": "60", "stat_def": "40", "stat_spa": "65", "stat_spd": "45", "stat_spe": "35", "stat_sum": "305", "type_1": "feu", "type_2": "sol"}, {"regional_number": "152", "national_number": "323", "name_fr": "Cam\u00e9rupt", "name_en": "Camerupt", "stat_hp": "70", "stat_atq": "100", "stat_def": "70", "stat_spa": "105", "stat_spd": "75", "stat_spe": "40", "stat_sum": "460", "type_1": "feu", "type_2": "sol"}, {"regional_number": "153", "national_number": "436", "name_fr": "Arch\u00e9omire", "name_en": "Bronzor", "stat_hp": "57", "stat_atq": "24", "stat_def": "86", "stat_spa": "24", "stat_spd": "86", "stat_spe": "23", "stat_sum": "300", "type_1": "acier", "type_2": "psy"}, {"regional_number": "154", "national_number": "437", "name_fr": "Arch\u00e9odong", "name_en": "Bronzong", "stat_hp": "67", "stat_atq": "89", "stat_def": "116", "stat_spa": "79", "stat_spd": "116", "stat_spe": "33", "stat_sum": "500", "type_1": "acier", "type_2": "psy"}, {"regional_number": "155", "national_number": "610", "name_fr": "Coupenotte", "name_en": "Axew", "stat_hp": "46", "stat_atq": "87", "stat_def": "60", "stat_spa": "30", "stat_spd": "40", "stat_spe": "57", "stat_sum": "320", "type_1": "dragon", "type_2": "NA"}, {"regional_number": "156", "national_number": "611", "name_fr": "Incisache", "name_en": "Fraxure", "stat_hp": "66", "stat_atq": "117", "stat_def": "70", "stat_spa": "40", "stat_spd": "50", "stat_spe": "67", "stat_sum": "410", "type_1": "dragon", "type_2": "NA"}, {"regional_number": "157", "national_number": "612", "name_fr": "Tranchodon", "name_en": "Haxorus", "stat_hp": "76", "stat_atq": "147", "stat_def": "90", "stat_spa": "60", "stat_spd": "70", "stat_spe": "97", "stat_sum": "540", "type_1": "dragon", "type_2": "NA"}, {"regional_number": "158", "national_number": "056", "name_fr": "F\u00e9rosinge", "name_en": "Mankey", "stat_hp": "40", "stat_atq": "80", "stat_def": "35", "stat_spa": "35", "stat_spd": "45", "stat_spe": "70", "stat_sum": "305", "type_1": "combat", "type_2": "NA"}, {"regional_number": "159", "national_number": "057", "name_fr": "Colossinge", "name_en": "Primeape", "stat_hp": "65", "stat_atq": "105", "stat_def": "60", "stat_spa": "60", "stat_spd": "70", "stat_spe": "95", "stat_sum": "455", "type_1": "combat", "type_2": "NA"}, {"regional_number": "160", "national_number": "1010", "name_fr": "Courrousinge", "name_en": "Annihilape", "stat_hp": "110", "stat_atq": "115", "stat_def": "80", "stat_spa": "50", "stat_spd": "90", "stat_spe": "90", "stat_sum": "535", "type_1": "combat", "type_2": "spectre"}, {"regional_number": "161", "national_number": "307", "name_fr": "M\u00e9ditikka", "name_en": "Meditite", "stat_hp": "30", "stat_atq": "40", "stat_def": "55", "stat_spa": "40", "stat_spd": "55", "stat_spe": "60", "stat_sum": "280", "type_1": "combat", "type_2": "psy"}, {"regional_number": "162", "national_number": "308", "name_fr": "Charmina", "name_en": "Medicham", "stat_hp": "60", "stat_atq": "60", "stat_def": "75", "stat_spa": "60", "stat_spd": "75", "stat_spe": "80", "stat_sum": "410", "type_1": "combat", "type_2": "psy"}, {"regional_number": "163", "national_number": "447", "name_fr": "Riolu", "name_en": "Riolu", "stat_hp": "40", "stat_atq": "70", "stat_def": "40", "stat_spa": "35", "stat_spd": "40", "stat_spe": "60", "stat_sum": "285", "type_1": "combat", "type_2": "NA"}, {"regional_number": "164", "national_number": "448", "name_fr": "Lucario", "name_en": "Lucario", "stat_hp": "70", "stat_atq": "110", "stat_def": "70", "stat_spa": "115", "stat_spd": "70", "stat_spe": "90", "stat_sum": "525", "type_1": "combat", "type_2": "acier"}, {"regional_number": "165", "national_number": "1003", "name_fr": "Charbambin", "name_en": "Charcadet", "stat_hp": "40", "stat_atq": "50", "stat_def": "40", "stat_spa": "50", "stat_spd": "40", "stat_spe": "35", "stat_sum": "255", "type_1": "feu", "type_2": "NA"}, {"regional_number": "166", "national_number": "1004", "name_fr": "Carmadura", "name_en": "Armarouge", "stat_hp": "85", "stat_atq": "60", "stat_def": "100", "stat_spa": "125", "stat_spd": "80", "stat_spe": "75", "stat_sum": "525", "type_1": "feu", "type_2": "psy"}, {"regional_number": "167", "national_number": "1005", "name_fr": "Malvalame", "name_en": "Ceruledge", "stat_hp": "75", "stat_atq": "125", "stat_def": "80", "stat_spa": "60", "stat_spd": "100", "stat_spe": "85", "stat_sum": "525", "type_1": "feu", "type_2": "spectre"}, {"regional_number": "168", "national_number": "339", "name_fr": "Barloche", "name_en": "Barboach", "stat_hp": "50", "stat_atq": "48", "stat_def": "43", "stat_spa": "46", "stat_spd": "41", "stat_spe": "60", "stat_sum": "288", "type_1": "eau", "type_2": "sol"}, {"regional_number": "169", "national_number": "340", "name_fr": "Barbicha", "name_en": "Whiscash", "stat_hp": "110", "stat_atq": "78", "stat_def": "73", "stat_spa": "76", "stat_spd": "71", "stat_spe": "60", "stat_sum": "468", "type_1": "eau", "type_2": "sol"}, {"regional_number": "170", "national_number": "940", "name_fr": "T\u00eatampoule", "name_en": "Tadbulb", "stat_hp": "61", "stat_atq": "31", "stat_def": "41", "stat_spa": "59", "stat_spd": "35", "stat_spe": "45", "stat_sum": "272", "type_1": "electrik", "type_2": "NA"}, {"regional_number": "171", "national_number": "941", "name_fr": "Ampibidou", "name_en": "Bellibolt", "stat_hp": "109", "stat_atq": "64", "stat_def": "91", "stat_spa": "103", "stat_spd": "83", "stat_spe": "45", "stat_sum": "495", "type_1": "electrik", "type_2": "NA"}, {"regional_number": "172", "national_number": "704", "name_fr": "Mucuscule", "name_en": "Goomy", "stat_hp": "45", "stat_atq": "50", "stat_def": "35", "stat_spa": "55", "stat_spd": "75", "stat_spe": "40", "stat_sum": "300", "type_1": "dragon", "type_2": "NA"}, {"regional_number": "173", "national_number": "705", "name_fr": "Colimucus", "name_en": "Sliggoo", "stat_hp": "68", "stat_atq": "75", "stat_def": "53", "stat_spa": "83", "stat_spd": "113", "stat_spe": "60", "stat_sum": "452", "type_1": "dragon", "type_2": "NA"}, {"regional_number": "174", "national_number": "706", "name_fr": "Muplodocus", "name_en": "Goodra", "stat_hp": "90", "stat_atq": "100", "stat_def": "70", "stat_spa": "110", "stat_spd": "150", "stat_spe": "80", "stat_sum": "600", "type_1": "dragon", "type_2": "NA"}, {"regional_number": "175", "national_number": "453", "name_fr": "Cradopaud", "name_en": "Croagunk", "stat_hp": "48", "stat_atq": "61", "stat_def": "40", "stat_spa": "61", "stat_spd": "40", "stat_spe": "50", "stat_sum": "300", "type_1": "poison", "type_2": "combat"}, {"regional_number": "176", "national_number": "454", "name_fr": "Coatox", "name_en": "Toxicroak", "stat_hp": "83", "stat_atq": "106", "stat_def": "65", "stat_spa": "86", "stat_spd": "65", "stat_spe": "85", "stat_sum": "490", "type_1": "poison", "type_2": "combat"}, {"regional_number": "177", "national_number": "957", "name_fr": "Zap\u00e9trel", "name_en": "Wattrel", "stat_hp": "40", "stat_atq": "40", "stat_def": "35", "stat_spa": "55", "stat_spd": "40", "stat_spe": "70", "stat_sum": "280", "type_1": "electrik", "type_2": "vol"}, {"regional_number": "178", "national_number": "958", "name_fr": "Fulgulairo", "name_en": "Kilowattrel", "stat_hp": "70", "stat_atq": "70", "stat_def": "60", "stat_spa": "105", "stat_spd": "60", "stat_spe": "125", "stat_sum": "490", "type_1": "electrik", "type_2": "vol"}, {"regional_number": "179", "national_number": "133", "name_fr": "err", "name_en": "err", "stat_hp": "0", "stat_atq": "0", "stat_def": "0", "stat_spa": "0", "stat_spd": "0", "stat_spe": "0", "stat_sum": "0", "type_1": "err", "type_2": "NA"}, {"regional_number": "180", "national_number": "134", "name_fr": "Aquali", "name_en": "Vaporeon", "stat_hp": "130", "stat_atq": "65", "stat_def": "60", "stat_spa": "110", "stat_spd": "95", "stat_spe": "65", "stat_sum": "525", "type_1": "eau", "type_2": "NA"}, {"regional_number": "181", "national_number": "135", "name_fr": "Voltali", "name_en": "Jolteon", "stat_hp": "65", "stat_atq": "65", "stat_def": "60", "stat_spa": "110", "stat_spd": "95", "stat_spe": "130", "stat_sum": "525", "type_1": "electrik", "type_2": "NA"}, {"regional_number": "182", "national_number": "136", "name_fr": "Pyroli", "name_en": "Flareon", "stat_hp": "65", "stat_atq": "130", "stat_def": "60", "stat_spa": "95", "stat_spd": "110", "stat_spe": "65", "stat_sum": "525", "type_1": "feu", "type_2": "NA"}, {"regional_number": "183", "national_number": "196", "name_fr": "Mentali", "name_en": "Espeon", "stat_hp": "65", "stat_atq": "65", "stat_def": "60", "stat_spa": "130", "stat_spd": "95", "stat_spe": "110", "stat_sum": "525", "type_1": "psy", "type_2": "NA"}, {"regional_number": "184", "national_number": "197", "name_fr": "Noctali", "name_en": "Umbreon", "stat_hp": "95", "stat_atq": "65", "stat_def": "110", "stat_spa": "60", "stat_spd": "130", "stat_spe": "65", "stat_sum": "525", "type_1": "tenebres", "type_2": "NA"}, {"regional_number": "185", "national_number": "470", "name_fr": "Phyllali", "name_en": "Leafeon", "stat_hp": "65", "stat_atq": "110", "stat_def": "130", "stat_spa": "60", "stat_spd": "65", "stat_spe": "95", "stat_sum": "525", "type_1": "plante", "type_2": "NA"}, {"regional_number": "186", "national_number": "471", "name_fr": "Givrali", "name_en": "Glaceon", "stat_hp": "65", "stat_atq": "60", "stat_def": "110", "stat_spa": "130", "stat_spd": "95", "stat_spe": "65", "stat_sum": "525", "type_1": "glace", "type_2": "NA"}, {"regional_number": "187", "national_number": "700", "name_fr": "Nymphali", "name_en": "Sylveon", "stat_hp": "95", "stat_atq": "65", "stat_def": "65", "stat_spa": "110", "stat_spd": "130", "stat_spe": "60", "stat_sum": "525", "type_1": "fee", "type_2": "NA"}, {"regional_number": "188", "national_number": "206", "name_fr": "Insolourdo", "name_en": "Dunsparce", "stat_hp": "100", "stat_atq": "70", "stat_def": "70", "stat_spa": "65", "stat_spd": "65", "stat_spe": "45", "stat_sum": "415", "type_1": "normal", "type_2": "NA"}, {"regional_number": "189", "national_number": "917", "name_fr": "Deusolourdo", "name_en": "Dudunsparce", "stat_hp": "125", "stat_atq": "100", "stat_def": "80", "stat_spa": "85", "stat_spd": "75", "stat_spe": "55", "stat_sum": "520", "type_1": "normal", "type_2": "NA"}, {"regional_number": "190", "national_number": "585", "name_fr": "Vivaldaim", "name_en": "Deerling", "stat_hp": "60", "stat_atq": "60", "stat_def": "50", "stat_spa": "40", "stat_spd": "50", "stat_spe": "75", "stat_sum": "335", "type_1": "normal", "type_2": "plante"}, {"regional_number": "191", "national_number": "586", "name_fr": "Haydaim", "name_en": "Sawsbuck", "stat_hp": "80", "stat_atq": "100", "stat_def": "70", "stat_spa": "60", "stat_spd": "70", "stat_spe": "95", "stat_sum": "475", "type_1": "normal", "type_2": "plante"}, {"regional_number": "192", "national_number": "203", "name_fr": "Girafarig", "name_en": "Girafarig", "stat_hp": "70", "stat_atq": "80", "stat_def": "65", "stat_spa": "90", "stat_spd": "65", "stat_spe": "85", "stat_sum": "455", "type_1": "normal", "type_2": "psy"}, {"regional_number": "193", "national_number": "928", "name_fr": "Farigiraf", "name_en": "Farigiraf", "stat_hp": "120", "stat_atq": "90", "stat_def": "70", "stat_spa": "110", "stat_spd": "70", "stat_spe": "60", "stat_sum": "520", "type_1": "normal", "type_2": "psy"}, {"regional_number": "194", "national_number": "088", "name_fr": "Tadmorv", "name_en": "Grimer", "stat_hp": "80", "stat_atq": "80", "stat_def": "50", "stat_spa": "40", "stat_spd": "50", "stat_spe": "25", "stat_sum": "325", "type_1": "poison", "type_2": "NA"}, {"regional_number": "195", "national_number": "089", "name_fr": "Grotadmorv", "name_en": "Muk", "stat_hp": "105", "stat_atq": "105", "stat_def": "75", "stat_spa": "65", "stat_spd": "100", "stat_spe": "50", "stat_sum": "500", "type_1": "poison", "type_2": "NA"}, {"regional_number": "196", "national_number": "972", "name_fr": "Grondogue", "name_en": "Maschiff", "stat_hp": "60", "stat_atq": "78", "stat_def": "60", "stat_spa": "40", "stat_spd": "51", "stat_spe": "51", "stat_sum": "340", "type_1": "tenebres", "type_2": "NA"}, {"regional_number": "197", "national_number": "973", "name_fr": "Dogrino", "name_en": "Mabosstiff", "stat_hp": "80", "stat_atq": "120", "stat_def": "90", "stat_spa": "60", "stat_spd": "70", "stat_spe": "85", "stat_sum": "505", "type_1": "tenebres", "type_2": "NA"}, {"regional_number": "198", "national_number": "848", "name_fr": "Toxizap", "name_en": "Toxel", "stat_hp": "40", "stat_atq": "38", "stat_def": "35", "stat_spa": "54", "stat_spd": "35", "stat_spe": "40", "stat_sum": "242", "type_1": "electrik", "type_2": "poison"}, {"regional_number": "199", "national_number": "849", "name_fr": "Salarsen", "name_en": "Toxtricity", "stat_hp": "75", "stat_atq": "98", "stat_def": "70", "stat_spa": "114", "stat_spd": "70", "stat_spe": "75", "stat_sum": "502", "type_1": "electrik", "type_2": "poison"}, {"regional_number": "200", "national_number": "702", "name_fr": "Dedenne", "name_en": "Dedenne", "stat_hp": "67", "stat_atq": "58", "stat_def": "57", "stat_spa": "81", "stat_spd": "67", "stat_spe": "101", "stat_sum": "431", "type_1": "electrik", "type_2": "fee"}, {"regional_number": "201", "national_number": "417", "name_fr": "Pachirisu", "name_en": "Pachirisu", "stat_hp": "60", "stat_atq": "45", "stat_def": "70", "stat_spa": "45", "stat_spd": "90", "stat_spe": "95", "stat_sum": "405", "type_1": "electrik", "type_2": "NA"}, {"regional_number": "202", "national_number": "968", "name_fr": "Gribouraigne", "name_en": "Shroodle", "stat_hp": "40", "stat_atq": "65", "stat_def": "35", "stat_spa": "40", "stat_spd": "35", "stat_spe": "75", "stat_sum": "290", "type_1": "poison", "type_2": "normal"}, {"regional_number": "203", "national_number": "969", "name_fr": "Tag-Tag", "name_en": "Grafaiai", "stat_hp": "63", "stat_atq": "95", "stat_def": "65", "stat_spa": "80", "stat_spd": "72", "stat_spe": "110", "stat_sum": "485", "type_1": "poison", "type_2": "normal"}, {"regional_number": "204", "national_number": "234", "name_fr": "Cerfrousse", "name_en": "Stantler", "stat_hp": "73", "stat_atq": "95", "stat_def": "62", "stat_spa": "85", "stat_spd": "65", "stat_spe": "85", "stat_sum": "465", "type_1": "normal", "type_2": "NA"}, {"regional_number": "205", "national_number": "590", "name_fr": "Trompignon", "name_en": "Foongus", "stat_hp": "69", "stat_atq": "55", "stat_def": "45", "stat_spa": "55", "stat_spd": "55", "stat_spe": "15", "stat_sum": "294", "type_1": "plante", "type_2": "poison"}, {"regional_number": "206", "national_number": "591", "name_fr": "Gaulet", "name_en": "Amoonguss", "stat_hp": "114", "stat_atq": "85", "stat_def": "70", "stat_spa": "85", "stat_spd": "80", "stat_spe": "30", "stat_sum": "464", "type_1": "plante", "type_2": "poison"}, {"regional_number": "207", "national_number": "100", "name_fr": "Voltorbe", "name_en": "Voltorb", "stat_hp": "40", "stat_atq": "30", "stat_def": "50", "stat_spa": "55", "stat_spd": "55", "stat_spe": "100", "stat_sum": "330", "type_1": "electrik", "type_2": "NA"}, {"regional_number": "208", "national_number": "101", "name_fr": "err", "name_en": "err", "stat_hp": "0", "stat_atq": "0", "stat_def": "0", "stat_spa": "0", "stat_spd": "0", "stat_spe": "0", "stat_sum": "0", "type_1": "err", "type_2": "NA"}, {"regional_number": "209", "national_number": "081", "name_fr": "Magn\u00e9ti", "name_en": "Magnemite", "stat_hp": "25", "stat_atq": "35", "stat_def": "70", "stat_spa": "95", "stat_spd": "55", "stat_spe": "45", "stat_sum": "325", "type_1": "electrik", "type_2": "acier"}, {"regional_number": "210", "national_number": "082", "name_fr": "Magn\u00e9ton", "name_en": "Magneton", "stat_hp": "50", "stat_atq": "60", "stat_def": "95", "stat_spa": "120", "stat_spd": "70", "stat_spe": "70", "stat_sum": "465", "type_1": "electrik", "type_2": "acier"}, {"regional_number": "211", "national_number": "462", "name_fr": "Magn\u00e9zone", "name_en": "Magnezone", "stat_hp": "70", "stat_atq": "70", "stat_def": "115", "stat_spa": "130", "stat_spd": "90", "stat_spe": "60", "stat_sum": "535", "type_1": "electrik", "type_2": "acier"}, {"regional_number": "212", "national_number": "132", "name_fr": "M\u00e9tamorph", "name_en": "Ditto", "stat_hp": "48", "stat_atq": "48", "stat_def": "48", "stat_spa": "48", "stat_spd": "48", "stat_spe": "48", "stat_sum": "288", "type_1": "normal", "type_2": "NA"}, {"regional_number": "213", "national_number": "058", "name_fr": "Caninos", "name_en": "Growlithe", "stat_hp": "55", "stat_atq": "70", "stat_def": "45", "stat_spa": "70", "stat_spd": "50", "stat_spe": "60", "stat_sum": "350", "type_1": "feu", "type_2": "NA"}, {"regional_number": "214", "national_number": "059", "name_fr": "Arcanin", "name_en": "Arcanine", "stat_hp": "90", "stat_atq": "110", "stat_def": "80", "stat_spa": "100", "stat_spd": "80", "stat_spe": "95", "stat_sum": "555", "type_1": "feu", "type_2": "NA"}, {"regional_number": "215", "national_number": "216", "name_fr": "Teddiursa", "name_en": "Teddiursa", "stat_hp": "60", "stat_atq": "80", "stat_def": "50", "stat_spa": "50", "stat_spd": "50", "stat_spe": "40", "stat_sum": "330", "type_1": "normal", "type_2": "NA"}, {"regional_number": "216", "national_number": "217", "name_fr": "Ursaring", "name_en": "Ursaring", "stat_hp": "90", "stat_atq": "130", "stat_def": "75", "stat_spa": "75", "stat_spd": "75", "stat_spe": "55", "stat_sum": "500", "type_1": "normal", "type_2": "NA"}, {"regional_number": "217", "national_number": "335", "name_fr": "Mangriff", "name_en": "Zangoose", "stat_hp": "73", "stat_atq": "115", "stat_def": "60", "stat_spa": "60", "stat_spd": "60", "stat_spe": "90", "stat_sum": "458", "type_1": "normal", "type_2": "NA"}, {"regional_number": "218", "national_number": "336", "name_fr": "S\u00e9viper", "name_en": "Seviper", "stat_hp": "73", "stat_atq": "100", "stat_def": "60", "stat_spa": "100", "stat_spd": "60", "stat_spe": "65", "stat_sum": "458", "type_1": "poison", "type_2": "NA"}, {"regional_number": "219", "national_number": "333", "name_fr": "Tylton", "name_en": "Swablu", "stat_hp": "45", "stat_atq": "40", "stat_def": "60", "stat_spa": "40", "stat_spd": "75", "stat_spe": "50", "stat_sum": "310", "type_1": "normal", "type_2": "vol"}, {"regional_number": "220", "national_number": "334", "name_fr": "Altaria", "name_en": "Altaria", "stat_hp": "75", "stat_atq": "70", "stat_def": "90", "stat_spa": "70", "stat_spd": "105", "stat_spe": "80", "stat_sum": "490", "type_1": "dragon", "type_2": "vol"}, {"regional_number": "221", "national_number": "672", "name_fr": "Cabriolaine", "name_en": "Skiddo", "stat_hp": "66", "stat_atq": "65", "stat_def": "48", "stat_spa": "62", "stat_spd": "57", "stat_spe": "52", "stat_sum": "350", "type_1": "plante", "type_2": "NA"}, {"regional_number": "222", "national_number": "673", "name_fr": "Chevroum", "name_en": "Gogoat", "stat_hp": "123", "stat_atq": "100", "stat_def": "62", "stat_spa": "97", "stat_spd": "81", "stat_spe": "68", "stat_sum": "531", "type_1": "plante", "type_2": "NA"}, {"regional_number": "223", "national_number": "128", "name_fr": "Tauros", "name_en": "Tauros", "stat_hp": "75", "stat_atq": "110", "stat_def": "105", "stat_spa": "30", "stat_spd": "70", "stat_spe": "100", "stat_sum": "490", "type_1": "combat", "type_2": "NA"}, {"regional_number": "224", "national_number": "667", "name_fr": "H\u00e9lionceau", "name_en": "Litleo", "stat_hp": "62", "stat_atq": "50", "stat_def": "58", "stat_spa": "73", "stat_spd": "54", "stat_spe": "72", "stat_sum": "369", "type_1": "feu", "type_2": "normal"}, {"regional_number": "225", "national_number": "668", "name_fr": "N\u00e9m\u00e9lios", "name_en": "Pyroar", "stat_hp": "86", "stat_atq": "68", "stat_def": "72", "stat_spa": "109", "stat_spd": "66", "stat_spe": "106", "stat_sum": "507", "type_1": "feu", "type_2": "normal"}, {"regional_number": "226", "national_number": "434", "name_fr": "Moufouette", "name_en": "Stunky", "stat_hp": "63", "stat_atq": "63", "stat_def": "47", "stat_spa": "41", "stat_spd": "41", "stat_spe": "74", "stat_sum": "329", "type_1": "poison", "type_2": "tenebres"}, {"regional_number": "227", "national_number": "435", "name_fr": "Moufflair", "name_en": "Skuntank", "stat_hp": "103", "stat_atq": "93", "stat_def": "67", "stat_spa": "71", "stat_spd": "61", "stat_spe": "84", "stat_sum": "479", "type_1": "poison", "type_2": "tenebres"}, {"regional_number": "228", "national_number": "570", "name_fr": "Zorua", "name_en": "Zorua", "stat_hp": "40", "stat_atq": "65", "stat_def": "40", "stat_spa": "80", "stat_spd": "40", "stat_spe": "65", "stat_sum": "330", "type_1": "tenebres", "type_2": "NA"}, {"regional_number": "229", "national_number": "571", "name_fr": "Zoroark", "name_en": "Zoroark", "stat_hp": "60", "stat_atq": "105", "stat_def": "60", "stat_spa": "120", "stat_spd": "60", "stat_spe": "105", "stat_sum": "510", "type_1": "tenebres", "type_2": "NA"}, {"regional_number": "230", "national_number": "215", "name_fr": "Farfuret", "name_en": "Sneasel", "stat_hp": "55", "stat_atq": "95", "stat_def": "55", "stat_spa": "35", "stat_spd": "75", "stat_spe": "115", "stat_sum": "430", "type_1": "tenebres", "type_2": "glace"}, {"regional_number": "231", "national_number": "461", "name_fr": "Dimoret", "name_en": "Weavile", "stat_hp": "70", "stat_atq": "120", "stat_def": "65", "stat_spa": "45", "stat_spd": "85", "stat_spe": "125", "stat_sum": "510", "type_1": "tenebres", "type_2": "glace"}, {"regional_number": "232", "national_number": "198", "name_fr": "Corn\u00e8bre", "name_en": "Murkrow", "stat_hp": "60", "stat_atq": "85", "stat_def": "42", "stat_spa": "85", "stat_spd": "42", "stat_spe": "91", "stat_sum": "405", "type_1": "tenebres", "type_2": "vol"}, {"regional_number": "233", "national_number": "430", "name_fr": "Corboss", "name_en": "Honchkrow", "stat_hp": "100", "stat_atq": "125", "stat_def": "52", "stat_spa": "105", "stat_spd": "52", "stat_spe": "71", "stat_sum": "505", "type_1": "tenebres", "type_2": "vol"}, {"regional_number": "234", "national_number": "574", "name_fr": "Scrutella", "name_en": "Gothita", "stat_hp": "45", "stat_atq": "30", "stat_def": "50", "stat_spa": "55", "stat_spd": "65", "stat_spe": "45", "stat_sum": "290", "type_1": "psy", "type_2": "NA"}, {"regional_number": "235", "national_number": "575", "name_fr": "Mesm\u00e9rella", "name_en": "Gothorita", "stat_hp": "60", "stat_atq": "45", "stat_def": "70", "stat_spa": "75", "stat_spd": "85", "stat_spe": "55", "stat_sum": "390", "type_1": "psy", "type_2": "NA"}, {"regional_number": "236", "national_number": "576", "name_fr": "Sid\u00e9rella", "name_en": "Gothitelle", "stat_hp": "70", "stat_atq": "55", "stat_def": "95", "stat_spa": "95", "stat_spd": "110", "stat_spe": "65", "stat_sum": "490", "type_1": "psy", "type_2": "NA"}, {"regional_number": "237", "national_number": "854", "name_fr": "Th\u00e9ffroi", "name_en": "Sinistea", "stat_hp": "40", "stat_atq": "45", "stat_def": "45", "stat_spa": "74", "stat_spd": "54", "stat_spe": "50", "stat_sum": "308", "type_1": "spectre", "type_2": "NA"}, {"regional_number": "238", "national_number": "855", "name_fr": "Polth\u00e9geist", "name_en": "Polteageist", "stat_hp": "60", "stat_atq": "65", "stat_def": "65", "stat_spa": "134", "stat_spd": "114", "stat_spe": "70", "stat_sum": "508", "type_1": "spectre", "type_2": "NA"}, {"regional_number": "239", "national_number": "778", "name_fr": "Mimiqui", "name_en": "Mimikyu", "stat_hp": "55", "stat_atq": "90", "stat_def": "80", "stat_spa": "50", "stat_spd": "105", "stat_spe": "96", "stat_sum": "476", "type_1": "spectre", "type_2": "fee"}, {"regional_number": "240", "national_number": "707", "name_fr": "Trousselin", "name_en": "Klefki", "stat_hp": "57", "stat_atq": "80", "stat_def": "91", "stat_spa": "80", "stat_spd": "87", "stat_spe": "75", "stat_sum": "470", "type_1": "acier", "type_2": "fee"}, {"regional_number": "241", "national_number": "876", "name_fr": "Wimessir", "name_en": "Indeedee", "stat_hp": "60", "stat_atq": "65", "stat_def": "55", "stat_spa": "105", "stat_spd": "95", "stat_spe": "95", "stat_sum": "475", "type_1": "psy", "type_2": "normal"}, {"regional_number": "242", "national_number": "974", "name_fr": "Virovent", "name_en": "Bramblin", "stat_hp": "40", "stat_atq": "65", "stat_def": "30", "stat_spa": "45", "stat_spd": "35", "stat_spe": "60", "stat_sum": "275", "type_1": "plante", "type_2": "spectre"}, {"regional_number": "243", "national_number": "975", "name_fr": "Virevorreur", "name_en": "Brambleghast", "stat_hp": "55", "stat_atq": "115", "stat_def": "70", "stat_spa": "80", "stat_spd": "70", "stat_spe": "90", "stat_sum": "480", "type_1": "plante", "type_2": "spectre"}, {"regional_number": "244", "national_number": "1006", "name_fr": "Terracool", "name_en": "Toedscool", "stat_hp": "40", "stat_atq": "40", "stat_def": "35", "stat_spa": "50", "stat_spd": "100", "stat_spe": "70", "stat_sum": "335", "type_1": "sol", "type_2": "plante"}, {"regional_number": "245", "national_number": "1007", "name_fr": "Terracruel", "name_en": "Toedscruel", "stat_hp": "80", "stat_atq": "70", "stat_def": "65", "stat_spa": "80", "stat_spd": "120", "stat_spe": "100", "stat_sum": "515", "type_1": "sol", "type_2": "plante"}, {"regional_number": "246", "national_number": "357", "name_fr": "Tropius", "name_en": "Tropius", "stat_hp": "99", "stat_atq": "68", "stat_def": "83", "stat_spa": "72", "stat_spd": "87", "stat_spe": "51", "stat_sum": "460", "type_1": "plante", "type_2": "vol"}, {"regional_number": "247", "national_number": "753", "name_fr": "Mimantis", "name_en": "Fomantis", "stat_hp": "40", "stat_atq": "55", "stat_def": "35", "stat_spa": "50", "stat_spd": "35", "stat_spe": "35", "stat_sum": "250", "type_1": "plante", "type_2": "NA"}, {"regional_number": "248", "national_number": "754", "name_fr": "Floramantis", "name_en": "Lurantis", "stat_hp": "70", "stat_atq": "105", "stat_def": "90", "stat_spa": "80", "stat_spd": "90", "stat_spe": "45", "stat_sum": "480", "type_1": "plante", "type_2": "NA"}, {"regional_number": "249", "national_number": "962", "name_fr": "Craparoi", "name_en": "Klawf", "stat_hp": "70", "stat_atq": "100", "stat_def": "115", "stat_spa": "35", "stat_spd": "55", "stat_spe": "75", "stat_sum": "450", "type_1": "roche", "type_2": "NA"}, {"regional_number": "250", "national_number": "938", "name_fr": "Pimito", "name_en": "Capsakid", "stat_hp": "50", "stat_atq": "62", "stat_def": "40", "stat_spa": "62", "stat_spd": "40", "stat_spe": "50", "stat_sum": "304", "type_1": "plante", "type_2": "NA"}, {"regional_number": "251", "national_number": "939", "name_fr": "Scovilain", "name_en": "Scovillain", "stat_hp": "65", "stat_atq": "108", "stat_def": "65", "stat_spa": "108", "stat_spd": "65", "stat_spe": "75", "stat_sum": "486", "type_1": "plante", "type_2": "feu"}, {"regional_number": "252", "national_number": "331", "name_fr": "Cacnea", "name_en": "Cacnea", "stat_hp": "50", "stat_atq": "85", "stat_def": "40", "stat_spa": "85", "stat_spd": "40", "stat_spe": "35", "stat_sum": "335", "type_1": "plante", "type_2": "NA"}, {"regional_number": "253", "national_number": "332", "name_fr": "Cacturne", "name_en": "Cacturne", "stat_hp": "70", "stat_atq": "115", "stat_def": "60", "stat_spa": "115", "stat_spd": "60", "stat_spe": "55", "stat_sum": "475", "type_1": "plante", "type_2": "tenebres"}, {"regional_number": "254", "national_number": "922", "name_fr": "L\u00e9boul\u00e9rou", "name_en": "Rellor", "stat_hp": "41", "stat_atq": "50", "stat_def": "60", "stat_spa": "31", "stat_spd": "58", "stat_spe": "30", "stat_sum": "270", "type_1": "insecte", "type_2": "NA"}, {"regional_number": "255", "national_number": "923", "name_fr": "B\u00e9rasca", "name_en": "Rabsca", "stat_hp": "75", "stat_atq": "50", "stat_def": "85", "stat_spa": "115", "stat_spd": "100", "stat_spe": "45", "stat_sum": "470", "type_1": "insecte", "type_2": "psy"}, {"regional_number": "256", "national_number": "048", "name_fr": "Mimitoss", "name_en": "Venonat", "stat_hp": "60", "stat_atq": "55", "stat_def": "50", "stat_spa": "40", "stat_spd": "55", "stat_spe": "45", "stat_sum": "305", "type_1": "insecte", "type_2": "poison"}, {"regional_number": "257", "national_number": "049", "name_fr": "A\u00e9romite", "name_en": "Venomoth", "stat_hp": "70", "stat_atq": "65", "stat_def": "60", "stat_spa": "90", "stat_spd": "75", "stat_spe": "90", "stat_sum": "450", "type_1": "insecte", "type_2": "poison"}, {"regional_number": "258", "national_number": "204", "name_fr": "Pomdepik", "name_en": "Pineco", "stat_hp": "50", "stat_atq": "65", "stat_def": "90", "stat_spa": "35", "stat_spd": "35", "stat_spe": "15", "stat_sum": "290", "type_1": "insecte", "type_2": "NA"}, {"regional_number": "259", "national_number": "205", "name_fr": "Foretress", "name_en": "Forretress", "stat_hp": "75", "stat_atq": "90", "stat_def": "140", "stat_spa": "60", "stat_spd": "60", "stat_spe": "40", "stat_sum": "465", "type_1": "insecte", "type_2": "acier"}, {"regional_number": "260", "national_number": "123", "name_fr": "Ins\u00e9cateur", "name_en": "Scyther", "stat_hp": "70", "stat_atq": "110", "stat_def": "80", "stat_spa": "55", "stat_spd": "80", "stat_spe": "105", "stat_sum": "500", "type_1": "insecte", "type_2": "vol"}, {"regional_number": "261", "national_number": "212", "name_fr": "Cizayox", "name_en": "Scizor", "stat_hp": "70", "stat_atq": "130", "stat_def": "100", "stat_spa": "55", "stat_spd": "80", "stat_spe": "65", "stat_sum": "500", "type_1": "insecte", "type_2": "acier"}, {"regional_number": "262", "national_number": "214", "name_fr": "Scarhino", "name_en": "Heracross", "stat_hp": "80", "stat_atq": "125", "stat_def": "75", "stat_spa": "40", "stat_spd": "95", "stat_spe": "85", "stat_sum": "500", "type_1": "insecte", "type_2": "combat"}, {"regional_number": "263", "national_number": "926", "name_fr": "Flotillon", "name_en": "Flittle", "stat_hp": "30", "stat_atq": "35", "stat_def": "30", "stat_spa": "55", "stat_spd": "30", "stat_spe": "75", "stat_sum": "255", "type_1": "psy", "type_2": "NA"}, {"regional_number": "264", "national_number": "927", "name_fr": "Cl\u00e9opsytra", "name_en": "Espathra", "stat_hp": "95", "stat_atq": "60", "stat_def": "60", "stat_spa": "101", "stat_spd": "60", "stat_spe": "105", "stat_sum": "481", "type_1": "psy", "type_2": "NA"}, {"regional_number": "265", "national_number": "449", "name_fr": "Hippopotas", "name_en": "Hippopotas", "stat_hp": "68", "stat_atq": "72", "stat_def": "78", "stat_spa": "38", "stat_spd": "42", "stat_spe": "32", "stat_sum": "330", "type_1": "sol", "type_2": "NA"}, {"regional_number": "266", "national_number": "450", "name_fr": "Hippodocus", "name_en": "Hippowdon", "stat_hp": "108", "stat_atq": "112", "stat_def": "118", "stat_spa": "68", "stat_spd": "72", "stat_spe": "47", "stat_sum": "525", "type_1": "sol", "type_2": "NA"}, {"regional_number": "267", "national_number": "551", "name_fr": "Masca\u00efman", "name_en": "Sandile", "stat_hp": "50", "stat_atq": "72", "stat_def": "35", "stat_spa": "35", "stat_spd": "35", "stat_spe": "65", "stat_sum": "292", "type_1": "sol", "type_2": "tenebres"}, {"regional_number": "268", "national_number": "552", "name_fr": "Escroco", "name_en": "Krokorok", "stat_hp": "60", "stat_atq": "82", "stat_def": "45", "stat_spa": "45", "stat_spd": "45", "stat_spe": "74", "stat_sum": "351", "type_1": "sol", "type_2": "tenebres"}, {"regional_number": "269", "national_number": "553", "name_fr": "Crocorible", "name_en": "Krookodile", "stat_hp": "95", "stat_atq": "117", "stat_def": "80", "stat_spa": "65", "stat_spd": "70", "stat_spe": "92", "stat_sum": "519", "type_1": "sol", "type_2": "tenebres"}, {"regional_number": "270", "national_number": "843", "name_fr": "Dunaja", "name_en": "Silicobra", "stat_hp": "52", "stat_atq": "57", "stat_def": "75", "stat_spa": "35", "stat_spd": "50", "stat_spe": "46", "stat_sum": "315", "type_1": "sol", "type_2": "NA"}, {"regional_number": "271", "national_number": "844", "name_fr": "Dunaconda", "name_en": "Sandaconda", "stat_hp": "72", "stat_atq": "107", "stat_def": "125", "stat_spa": "65", "stat_spd": "70", "stat_spe": "71", "stat_sum": "510", "type_1": "sol", "type_2": "NA"}, {"regional_number": "272", "national_number": "749", "name_fr": "Tiboudet", "name_en": "Mudbray", "stat_hp": "70", "stat_atq": "100", "stat_def": "70", "stat_spa": "45", "stat_spd": "55", "stat_spe": "45", "stat_sum": "385", "type_1": "sol", "type_2": "NA"}, {"regional_number": "273", "national_number": "750", "name_fr": "Bourrinos", "name_en": "Mudsdale", "stat_hp": "100", "stat_atq": "125", "stat_def": "100", "stat_spa": "55", "stat_spd": "85", "stat_spe": "35", "stat_sum": "500", "type_1": "sol", "type_2": "NA"}, {"regional_number": "274", "national_number": "636", "name_fr": "Pyronille", "name_en": "Larvesta", "stat_hp": "55", "stat_atq": "85", "stat_def": "55", "stat_spa": "50", "stat_spd": "55", "stat_spe": "60", "stat_sum": "360", "type_1": "insecte", "type_2": "feu"}, {"regional_number": "275", "national_number": "637", "name_fr": "Pyrax", "name_en": "Volcarona", "stat_hp": "85", "stat_atq": "60", "stat_def": "65", "stat_spa": "135", "stat_spd": "105", "stat_spe": "100", "stat_sum": "550", "type_1": "insecte", "type_2": "feu"}, {"regional_number": "276", "national_number": "371", "name_fr": "Draby", "name_en": "Bagon", "stat_hp": "45", "stat_atq": "75", "stat_def": "60", "stat_spa": "40", "stat_spd": "30", "stat_spe": "50", "stat_sum": "300", "type_1": "dragon", "type_2": "NA"}, {"regional_number": "277", "national_number": "372", "name_fr": "Drackhaus", "name_en": "Shelgon", "stat_hp": "65", "stat_atq": "95", "stat_def": "100", "stat_spa": "60", "stat_spd": "50", "stat_spe": "50", "stat_sum": "420", "type_1": "dragon", "type_2": "NA"}, {"regional_number": "278", "national_number": "373", "name_fr": "Drattak", "name_en": "Salamence", "stat_hp": "95", "stat_atq": "135", "stat_def": "80", "stat_spa": "110", "stat_spd": "80", "stat_spe": "100", "stat_sum": "600", "type_1": "dragon", "type_2": "vol"}, {"regional_number": "279", "national_number": "1000", "name_fr": "Forgerette", "name_en": "Tinkatink", "stat_hp": "50", "stat_atq": "45", "stat_def": "45", "stat_spa": "35", "stat_spd": "64", "stat_spe": "58", "stat_sum": "297", "type_1": "fee", "type_2": "acier"}, {"regional_number": "280", "national_number": "1001", "name_fr": "Forgella", "name_en": "Tinkatuff", "stat_hp": "65", "stat_atq": "55", "stat_def": "55", "stat_spa": "45", "stat_spd": "82", "stat_spe": "78", "stat_sum": "380", "type_1": "fee", "type_2": "acier"}, {"regional_number": "281", "national_number": "1002", "name_fr": "Forgelina", "name_en": "Tinkaton", "stat_hp": "85", "stat_atq": "75", "stat_def": "77", "stat_spa": "70", "stat_spd": "105", "stat_spe": "94", "stat_sum": "506", "type_1": "fee", "type_2": "acier"}, {"regional_number": "282", "national_number": "856", "name_fr": "Bibichut", "name_en": "Hatenna", "stat_hp": "42", "stat_atq": "30", "stat_def": "45", "stat_spa": "56", "stat_spd": "53", "stat_spe": "39", "stat_sum": "265", "type_1": "psy", "type_2": "NA"}, {"regional_number": "283", "national_number": "857", "name_fr": "Chapotus", "name_en": "Hattrem", "stat_hp": "57", "stat_atq": "40", "stat_def": "65", "stat_spa": "86", "stat_spd": "73", "stat_spe": "49", "stat_sum": "370", "type_1": "psy", "type_2": "NA"}, {"regional_number": "284", "national_number": "858", "name_fr": "Sorcilence", "name_en": "Hatterene", "stat_hp": "57", "stat_atq": "90", "stat_def": "95", "stat_spa": "136", "stat_spd": "103", "stat_spe": "29", "stat_sum": "510", "type_1": "psy", "type_2": "fee"}, {"regional_number": "285", "national_number": "859", "name_fr": "Grimalin", "name_en": "Impidimp", "stat_hp": "45", "stat_atq": "45", "stat_def": "30", "stat_spa": "55", "stat_spd": "40", "stat_spe": "50", "stat_sum": "265", "type_1": "tenebres", "type_2": "fee"}, {"regional_number": "286", "national_number": "860", "name_fr": "Fourbelin", "name_en": "Morgrem", "stat_hp": "65", "stat_atq": "60", "stat_def": "45", "stat_spa": "75", "stat_spd": "55", "stat_spe": "70", "stat_sum": "370", "type_1": "tenebres", "type_2": "fee"}, {"regional_number": "287", "national_number": "861", "name_fr": "Angoliath", "name_en": "Grimmsnarl", "stat_hp": "95", "stat_atq": "120", "stat_def": "65", "stat_spa": "95", "stat_spd": "75", "stat_spe": "60", "stat_sum": "510", "type_1": "tenebres", "type_2": "fee"}, {"regional_number": "288", "national_number": "929", "name_fr": "Taupikeau", "name_en": "Wiglett", "stat_hp": "10", "stat_atq": "55", "stat_def": "25", "stat_spa": "35", "stat_spd": "25", "stat_spe": "95", "stat_sum": "245", "type_1": "eau", "type_2": "NA"}, {"regional_number": "289", "national_number": "930", "name_fr": "Triopikeau", "name_en": "Wugtrio", "stat_hp": "35", "stat_atq": "100", "stat_def": "50", "stat_spa": "50", "stat_spd": "70", "stat_spe": "120", "stat_sum": "425", "type_1": "eau", "type_2": "NA"}, {"regional_number": "290", "national_number": "959", "name_fr": "Lestombaile", "name_en": "Bombirdier", "stat_hp": "70", "stat_atq": "103", "stat_def": "85", "stat_spa": "60", "stat_spd": "85", "stat_spe": "82", "stat_sum": "485", "type_1": "vol", "type_2": "tenebres"}, {"regional_number": "291", "national_number": "933", "name_fr": "Dofin", "name_en": "Finizen", "stat_hp": "70", "stat_atq": "45", "stat_def": "40", "stat_spa": "45", "stat_spd": "40", "stat_spe": "75", "stat_sum": "315", "type_1": "eau", "type_2": "NA"}, {"regional_number": "292", "national_number": "934", "name_fr": "Superdofin", "name_en": "Palafin", "stat_hp": "100", "stat_atq": "70", "stat_def": "72", "stat_spa": "53", "stat_spd": "62", "stat_spe": "100", "stat_sum": "457", "type_1": "eau", "type_2": "NA"}, {"regional_number": "293", "national_number": "942", "name_fr": "Vrombi", "name_en": "Varoom", "stat_hp": "45", "stat_atq": "70", "stat_def": "63", "stat_spa": "30", "stat_spd": "45", "stat_spe": "47", "stat_sum": "300", "type_1": "acier", "type_2": "poison"}, {"regional_number": "294", "national_number": "943", "name_fr": "Vrombotor", "name_en": "Revavroom", "stat_hp": "80", "stat_atq": "119", "stat_def": "90", "stat_spa": "54", "stat_spd": "67", "stat_spe": "90", "stat_sum": "500", "type_1": "acier", "type_2": "poison"}, {"regional_number": "295", "national_number": "953", "name_fr": "Motorizard", "name_en": "Cyclizar", "stat_hp": "70", "stat_atq": "95", "stat_def": "65", "stat_spa": "85", "stat_spd": "65", "stat_spe": "121", "stat_sum": "501", "type_1": "dragon", "type_2": "normal"}, {"regional_number": "296", "national_number": "944", "name_fr": "Ferdeter", "name_en": "Orthworm", "stat_hp": "70", "stat_atq": "85", "stat_def": "145", "stat_spa": "60", "stat_spd": "55", "stat_spe": "65", "stat_sum": "480", "type_1": "acier", "type_2": "NA"}, {"regional_number": "297", "national_number": "302", "name_fr": "T\u00e9n\u00e9fix", "name_en": "Sableye", "stat_hp": "50", "stat_atq": "75", "stat_def": "75", "stat_spa": "65", "stat_spd": "65", "stat_spe": "50", "stat_sum": "380", "type_1": "tenebres", "type_2": "spectre"}, {"regional_number": "298", "national_number": "353", "name_fr": "Polichombr", "name_en": "Shuppet", "stat_hp": "44", "stat_atq": "75", "stat_def": "35", "stat_spa": "63", "stat_spd": "33", "stat_spe": "45", "stat_sum": "295", "type_1": "spectre", "type_2": "NA"}, {"regional_number": "299", "national_number": "354", "name_fr": "Branette", "name_en": "Banette", "stat_hp": "64", "stat_atq": "115", "stat_def": "65", "stat_spa": "83", "stat_spd": "63", "stat_spe": "65", "stat_sum": "455", "type_1": "spectre", "type_2": "NA"}, {"regional_number": "300", "national_number": "870", "name_fr": "Hexadron", "name_en": "Falinks", "stat_hp": "65", "stat_atq": "100", "stat_def": "100", "stat_spa": "70", "stat_spd": "60", "stat_spe": "75", "stat_sum": "470", "type_1": "combat", "type_2": "NA"}, {"regional_number": "301", "national_number": "701", "name_fr": "Brutalibr\u00e9", "name_en": "Hawlucha", "stat_hp": "78", "stat_atq": "92", "stat_def": "75", "stat_spa": "74", "stat_spd": "63", "stat_spe": "118", "stat_sum": "500", "type_1": "combat", "type_2": "vol"}, {"regional_number": "302", "national_number": "442", "name_fr": "Spiritomb", "name_en": "Spiritomb", "stat_hp": "50", "stat_atq": "92", "stat_def": "108", "stat_spa": "92", "stat_spd": "108", "stat_spe": "35", "stat_sum": "485", "type_1": "spectre", "type_2": "tenebres"}, {"regional_number": "303", "national_number": "714", "name_fr": "Sonistrelle", "name_en": "Noibat", "stat_hp": "40", "stat_atq": "30", "stat_def": "35", "stat_spa": "45", "stat_spd": "40", "stat_spe": "55", "stat_sum": "245", "type_1": "vol", "type_2": "dragon"}, {"regional_number": "304", "national_number": "715", "name_fr": "Bruyverne", "name_en": "Noivern", "stat_hp": "85", "stat_atq": "70", "stat_def": "80", "stat_spa": "97", "stat_spd": "80", "stat_spe": "123", "stat_sum": "535", "type_1": "vol", "type_2": "dragon"}, {"regional_number": "305", "national_number": "885", "name_fr": "Fantyrm", "name_en": "Dreepy", "stat_hp": "28", "stat_atq": "60", "stat_def": "30", "stat_spa": "40", "stat_spd": "30", "stat_spe": "82", "stat_sum": "270", "type_1": "dragon", "type_2": "spectre"}, {"regional_number": "306", "national_number": "886", "name_fr": "Dispareptil", "name_en": "Drakloak", "stat_hp": "68", "stat_atq": "80", "stat_def": "50", "stat_spa": "60", "stat_spd": "50", "stat_spe": "102", "stat_sum": "410", "type_1": "dragon", "type_2": "spectre"}, {"regional_number": "307", "national_number": "887", "name_fr": "Lanssorien", "name_en": "Dragapult", "stat_hp": "88", "stat_atq": "120", "stat_def": "75", "stat_spa": "100", "stat_spd": "75", "stat_spe": "142", "stat_sum": "600", "type_1": "dragon", "type_2": "spectre"}, {"regional_number": "308", "national_number": "966", "name_fr": "Germ\u00e9clat", "name_en": "Glimmet", "stat_hp": "48", "stat_atq": "35", "stat_def": "42", "stat_spa": "105", "stat_spd": "60", "stat_spe": "60", "stat_sum": "350", "type_1": "roche", "type_2": "poison"}, {"regional_number": "309", "national_number": "967", "name_fr": "Flor\u00e9clat", "name_en": "Glimmora", "stat_hp": "83", "stat_atq": "55", "stat_def": "90", "stat_spa": "130", "stat_spd": "81", "stat_spe": "86", "stat_sum": "525", "type_1": "roche", "type_2": "poison"}, {"regional_number": "310", "national_number": "479", "name_fr": "Motisma", "name_en": "Rotom", "stat_hp": "50", "stat_atq": "50", "stat_def": "77", "stat_spa": "95", "stat_spd": "77", "stat_spe": "91", "stat_sum": "440", "type_1": "electrik", "type_2": "spectre"}, {"regional_number": "311", "national_number": "924", "name_fr": "Toutombe", "name_en": "Greavard", "stat_hp": "50", "stat_atq": "61", "stat_def": "60", "stat_spa": "30", "stat_spd": "55", "stat_spe": "34", "stat_sum": "290", "type_1": "spectre", "type_2": "NA"}, {"regional_number": "312", "national_number": "925", "name_fr": "Tomberro", "name_en": "Houndstone", "stat_hp": "72", "stat_atq": "101", "stat_def": "100", "stat_spa": "50", "stat_spd": "97", "stat_spe": "68", "stat_sum": "488", "type_1": "spectre", "type_2": "NA"}, {"regional_number": "313", "national_number": "765", "name_fr": "Gouroutan", "name_en": "Oranguru", "stat_hp": "90", "stat_atq": "60", "stat_def": "80", "stat_spa": "90", "stat_spd": "110", "stat_spe": "60", "stat_sum": "490", "type_1": "normal", "type_2": "psy"}, {"regional_number": "314", "national_number": "766", "name_fr": "Quartermac", "name_en": "Passimian", "stat_hp": "100", "stat_atq": "120", "stat_def": "90", "stat_spa": "40", "stat_spd": "60", "stat_spe": "80", "stat_sum": "490", "type_1": "combat", "type_2": "NA"}, {"regional_number": "315", "national_number": "775", "name_fr": "Dodoala", "name_en": "Komala", "stat_hp": "65", "stat_atq": "115", "stat_def": "65", "stat_spa": "75", "stat_spd": "95", "stat_spe": "65", "stat_sum": "480", "type_1": "normal", "type_2": "NA"}, {"regional_number": "316", "national_number": "246", "name_fr": "Embrylex", "name_en": "Larvitar", "stat_hp": "50", "stat_atq": "64", "stat_def": "50", "stat_spa": "45", "stat_spd": "50", "stat_spe": "41", "stat_sum": "300", "type_1": "roche", "type_2": "sol"}, {"regional_number": "317", "national_number": "247", "name_fr": "Ymphect", "name_en": "Pupitar", "stat_hp": "70", "stat_atq": "84", "stat_def": "70", "stat_spa": "65", "stat_spd": "70", "stat_spe": "51", "stat_sum": "410", "type_1": "roche", "type_2": "sol"}, {"regional_number": "318", "national_number": "248", "name_fr": "Tyranocif", "name_en": "Tyranitar", "stat_hp": "100", "stat_atq": "134", "stat_def": "110", "stat_spa": "95", "stat_spd": "100", "stat_spe": "61", "stat_sum": "600", "type_1": "roche", "type_2": "tenebres"}, {"regional_number": "319", "national_number": "874", "name_fr": "Dolman", "name_en": "Stonjourner", "stat_hp": "100", "stat_atq": "125", "stat_def": "135", "stat_spa": "20", "stat_spd": "20", "stat_spe": "70", "stat_sum": "470", "type_1": "roche", "type_2": "NA"}, {"regional_number": "320", "national_number": "875", "name_fr": "Bekagla\u00e7on", "name_en": "Eiscue", "stat_hp": "75", "stat_atq": "80", "stat_def": "110", "stat_spa": "65", "stat_spd": "90", "stat_spe": "50", "stat_sum": "470", "type_1": "glace", "type_2": "NA"}, {"regional_number": "321", "national_number": "871", "name_fr": "Wattapik", "name_en": "Pincurchin", "stat_hp": "48", "stat_atq": "101", "stat_def": "95", "stat_spa": "91", "stat_spd": "85", "stat_spe": "15", "stat_sum": "435", "type_1": "electrik", "type_2": "NA"}, {"regional_number": "322", "national_number": "769", "name_fr": "Bacabouh", "name_en": "Sandygast", "stat_hp": "55", "stat_atq": "55", "stat_def": "80", "stat_spa": "70", "stat_spd": "45", "stat_spe": "15", "stat_sum": "320", "type_1": "spectre", "type_2": "sol"}, {"regional_number": "323", "national_number": "770", "name_fr": "Tr\u00e9passable", "name_en": "Palossand", "stat_hp": "85", "stat_atq": "75", "stat_def": "110", "stat_spa": "100", "stat_spd": "75", "stat_spe": "35", "stat_sum": "480", "type_1": "spectre", "type_2": "sol"}, {"regional_number": "324", "national_number": "079", "name_fr": "Ramoloss", "name_en": "Slowpoke", "stat_hp": "90", "stat_atq": "65", "stat_def": "65", "stat_spa": "40", "stat_spd": "40", "stat_spe": "15", "stat_sum": "315", "type_1": "eau", "type_2": "psy"}, {"regional_number": "325", "national_number": "080", "name_fr": "Flagadoss", "name_en": "Slowbro", "stat_hp": "95", "stat_atq": "75", "stat_def": "110", "stat_spa": "100", "stat_spd": "80", "stat_spe": "30", "stat_sum": "490", "type_1": "eau", "type_2": "psy"}, {"regional_number": "326", "national_number": "199", "name_fr": "Roigada", "name_en": "Slowking", "stat_hp": "95", "stat_atq": "75", "stat_def": "80", "stat_spa": "100", "stat_spd": "110", "stat_spe": "30", "stat_sum": "490", "type_1": "eau", "type_2": "psy"}, {"regional_number": "327", "national_number": "422", "name_fr": "Sancoki", "name_en": "Shellos", "stat_hp": "76", "stat_atq": "48", "stat_def": "48", "stat_spa": "57", "stat_spd": "62", "stat_spe": "34", "stat_sum": "325", "type_1": "eau", "type_2": "NA"}, {"regional_number": "328", "national_number": "423", "name_fr": "Tritosor", "name_en": "Gastrodon", "stat_hp": "111", "stat_atq": "83", "stat_def": "68", "stat_spa": "92", "stat_spd": "82", "stat_spe": "39", "stat_sum": "475", "type_1": "eau", "type_2": "sol"}, {"regional_number": "329", "national_number": "090", "name_fr": "Kokiyas", "name_en": "Shellder", "stat_hp": "30", "stat_atq": "65", "stat_def": "100", "stat_spa": "45", "stat_spd": "25", "stat_spe": "40", "stat_sum": "305", "type_1": "eau", "type_2": "NA"}, {"regional_number": "330", "national_number": "091", "name_fr": "Crustabri", "name_en": "Cloyster", "stat_hp": "50", "stat_atq": "95", "stat_def": "180", "stat_spa": "85", "stat_spd": "45", "stat_spe": "70", "stat_sum": "525", "type_1": "eau", "type_2": "glace"}, {"regional_number": "331", "national_number": "211", "name_fr": "Qwilfish", "name_en": "Qwilfish", "stat_hp": "65", "stat_atq": "95", "stat_def": "85", "stat_spa": "55", "stat_spd": "55", "stat_spe": "85", "stat_sum": "440", "type_1": "eau", "type_2": "poison"}, {"regional_number": "332", "national_number": "370", "name_fr": "Lovdisc", "name_en": "Luvdisc", "stat_hp": "43", "stat_atq": "30", "stat_def": "55", "stat_spa": "40", "stat_spd": "65", "stat_spe": "97", "stat_sum": "330", "type_1": "eau", "type_2": "NA"}, {"regional_number": "333", "national_number": "456", "name_fr": "err", "name_en": "err", "stat_hp": "0", "stat_atq": "0", "stat_def": "0", "stat_spa": "0", "stat_spd": "0", "stat_spe": "0", "stat_sum": "0", "type_1": "err", "type_2": "NA"}, {"regional_number": "334", "national_number": "457", "name_fr": "Lumin\u00e9on", "name_en": "Lumineon", "stat_hp": "69", "stat_atq": "69", "stat_def": "76", "stat_spa": "69", "stat_spd": "86", "stat_spe": "91", "stat_sum": "460", "type_1": "eau", "type_2": "NA"}, {"regional_number": "335", "national_number": "779", "name_fr": "Denticrisse", "name_en": "Bruxish", "stat_hp": "68", "stat_atq": "105", "stat_def": "70", "stat_spa": "70", "stat_spd": "70", "stat_spe": "92", "stat_sum": "475", "type_1": "eau", "type_2": "psy"}, {"regional_number": "336", "national_number": "594", "name_fr": "Mamanbo", "name_en": "Alomomola", "stat_hp": "165", "stat_atq": "75", "stat_def": "80", "stat_spa": "40", "stat_spd": "45", "stat_spe": "65", "stat_sum": "470", "type_1": "eau", "type_2": "NA"}, {"regional_number": "337", "national_number": "690", "name_fr": "Venalgue", "name_en": "Skrelp", "stat_hp": "50", "stat_atq": "60", "stat_def": "60", "stat_spa": "60", "stat_spd": "60", "stat_spe": "30", "stat_sum": "320", "type_1": "poison", "type_2": "eau"}, {"regional_number": "338", "national_number": "691", "name_fr": "Kravarech", "name_en": "Dragalge", "stat_hp": "65", "stat_atq": "75", "stat_def": "90", "stat_spa": "97", "stat_spd": "123", "stat_spe": "44", "stat_sum": "494", "type_1": "poison", "type_2": "dragon"}, {"regional_number": "339", "national_number": "692", "name_fr": "Flingouste", "name_en": "Clauncher", "stat_hp": "50", "stat_atq": "53", "stat_def": "62", "stat_spa": "58", "stat_spd": "63", "stat_spe": "44", "stat_sum": "330", "type_1": "eau", "type_2": "NA"}, {"regional_number": "340", "national_number": "693", "name_fr": "Gamblast", "name_en": "Clawitzer", "stat_hp": "71", "stat_atq": "73", "stat_def": "88", "stat_spa": "120", "stat_spd": "89", "stat_spe": "59", "stat_sum": "500", "type_1": "eau", "type_2": "NA"}, {"regional_number": "341", "national_number": "602", "name_fr": "Anchwatt", "name_en": "Tynamo", "stat_hp": "35", "stat_atq": "55", "stat_def": "40", "stat_spa": "45", "stat_spd": "40", "stat_spe": "60", "stat_sum": "275", "type_1": "electrik", "type_2": "NA"}, {"regional_number": "342", "national_number": "603", "name_fr": "Lamp\u00e9roie", "name_en": "Eelektrik", "stat_hp": "65", "stat_atq": "85", "stat_def": "70", "stat_spa": "75", "stat_spd": "70", "stat_spe": "40", "stat_sum": "405", "type_1": "electrik", "type_2": "NA"}, {"regional_number": "343", "national_number": "604", "name_fr": "Ohmassacre", "name_en": "Eelektross", "stat_hp": "85", "stat_atq": "115", "stat_def": "80", "stat_spa": "105", "stat_spd": "80", "stat_spe": "50", "stat_sum": "515", "type_1": "electrik", "type_2": "NA"}, {"regional_number": "344", "national_number": "747", "name_fr": "Vorast\u00e9rie", "name_en": "Mareanie", "stat_hp": "50", "stat_atq": "53", "stat_def": "62", "stat_spa": "43", "stat_spd": "52", "stat_spe": "45", "stat_sum": "305", "type_1": "poison", "type_2": "eau"}, {"regional_number": "345", "national_number": "748", "name_fr": "Pr\u00e9dast\u00e9rie", "name_en": "Toxapex", "stat_hp": "50", "stat_atq": "63", "stat_def": "152", "stat_spa": "53", "stat_spd": "142", "stat_spe": "35", "stat_sum": "495", "type_1": "poison", "type_2": "eau"}, {"regional_number": "346", "national_number": "961", "name_fr": "Flamenroule", "name_en": "Flamigo", "stat_hp": "82", "stat_atq": "115", "stat_def": "74", "stat_spa": "75", "stat_spd": "64", "stat_spe": "90", "stat_sum": "500", "type_1": "vol", "type_2": "combat"}, {"regional_number": "347", "national_number": "147", "name_fr": "Minidraco", "name_en": "Dratini", "stat_hp": "41", "stat_atq": "64", "stat_def": "45", "stat_spa": "50", "stat_spd": "50", "stat_spe": "50", "stat_sum": "300", "type_1": "dragon", "type_2": "NA"}, {"regional_number": "348", "national_number": "148", "name_fr": "Draco", "name_en": "Dragonair", "stat_hp": "61", "stat_atq": "84", "stat_def": "65", "stat_spa": "70", "stat_spd": "70", "stat_spe": "70", "stat_sum": "420", "type_1": "dragon", "type_2": "NA"}, {"regional_number": "349", "national_number": "149", "name_fr": "Dracolosse", "name_en": "Dragonite", "stat_hp": "91", "stat_atq": "134", "stat_def": "95", "stat_spa": "100", "stat_spd": "100", "stat_spe": "80", "stat_sum": "600", "type_1": "dragon", "type_2": "vol"}, {"regional_number": "350", "national_number": "872", "name_fr": "Frissonille", "name_en": "Snom", "stat_hp": "30", "stat_atq": "25", "stat_def": "35", "stat_spa": "45", "stat_spd": "30", "stat_spe": "20", "stat_sum": "185", "type_1": "glace", "type_2": "insecte"}, {"regional_number": "351", "national_number": "873", "name_fr": "Beldeneige", "name_en": "Frosmoth", "stat_hp": "70", "stat_atq": "65", "stat_def": "60", "stat_spa": "125", "stat_spd": "90", "stat_spe": "65", "stat_sum": "475", "type_1": "glace", "type_2": "insecte"}, {"regional_number": "352", "national_number": "459", "name_fr": "Blizzi", "name_en": "Snover", "stat_hp": "60", "stat_atq": "62", "stat_def": "50", "stat_spa": "62", "stat_spd": "60", "stat_spe": "40", "stat_sum": "334", "type_1": "plante", "type_2": "glace"}, {"regional_number": "353", "national_number": "460", "name_fr": "Blizzaroi", "name_en": "Abomasnow", "stat_hp": "90", "stat_atq": "92", "stat_def": "75", "stat_spa": "92", "stat_spd": "85", "stat_spe": "60", "stat_sum": "494", "type_1": "plante", "type_2": "glace"}, {"regional_number": "354", "national_number": "225", "name_fr": "Cadoizo", "name_en": "Delibird", "stat_hp": "45", "stat_atq": "55", "stat_def": "45", "stat_spa": "65", "stat_spd": "45", "stat_spe": "75", "stat_sum": "330", "type_1": "glace", "type_2": "vol"}, {"regional_number": "355", "national_number": "613", "name_fr": "Polarhume", "name_en": "Cubchoo", "stat_hp": "55", "stat_atq": "70", "stat_def": "40", "stat_spa": "60", "stat_spd": "40", "stat_spe": "40", "stat_sum": "305", "type_1": "glace", "type_2": "NA"}, {"regional_number": "356", "national_number": "614", "name_fr": "Polagriffe", "name_en": "Beartic", "stat_hp": "95", "stat_atq": "130", "stat_def": "80", "stat_spa": "70", "stat_spd": "80", "stat_spe": "50", "stat_sum": "505", "type_1": "glace", "type_2": "NA"}, {"regional_number": "357", "national_number": "361", "name_fr": "Stalgamin", "name_en": "Snorunt", "stat_hp": "50", "stat_atq": "50", "stat_def": "50", "stat_spa": "50", "stat_spd": "50", "stat_spe": "50", "stat_sum": "300", "type_1": "glace", "type_2": "NA"}, {"regional_number": "358", "national_number": "362", "name_fr": "Oniglali", "name_en": "Glalie", "stat_hp": "80", "stat_atq": "80", "stat_def": "80", "stat_spa": "80", "stat_spd": "80", "stat_spe": "80", "stat_sum": "480", "type_1": "glace", "type_2": "NA"}, {"regional_number": "359", "national_number": "478", "name_fr": "Momartik", "name_en": "Froslass", "stat_hp": "70", "stat_atq": "80", "stat_def": "70", "stat_spa": "80", "stat_spd": "70", "stat_spe": "110", "stat_sum": "480", "type_1": "glace", "type_2": "spectre"}, {"regional_number": "360", "national_number": "615", "name_fr": "Hexagel", "name_en": "Cryogonal", "stat_hp": "80", "stat_atq": "50", "stat_def": "50", "stat_spa": "95", "stat_spd": "135", "stat_spe": "105", "stat_sum": "515", "type_1": "glace", "type_2": "NA"}, {"regional_number": "361", "national_number": "947", "name_fr": "Pi\u00e9tac\u00e9", "name_en": "Cetoddle", "stat_hp": "108", "stat_atq": "68", "stat_def": "45", "stat_spa": "30", "stat_spd": "40", "stat_spe": "43", "stat_sum": "334", "type_1": "glace", "type_2": "NA"}, {"regional_number": "362", "national_number": "948", "name_fr": "Balbal\u00e8ze", "name_en": "Cetitan", "stat_hp": "170", "stat_atq": "113", "stat_def": "65", "stat_spa": "45", "stat_spd": "55", "stat_spe": "73", "stat_sum": "521", "type_1": "glace", "type_2": "NA"}, {"regional_number": "363", "national_number": "712", "name_fr": "Grela\u00e7on", "name_en": "Bergmite", "stat_hp": "55", "stat_atq": "69", "stat_def": "85", "stat_spa": "32", "stat_spd": "35", "stat_spe": "28", "stat_sum": "304", "type_1": "glace", "type_2": "NA"}, {"regional_number": "364", "national_number": "713", "name_fr": "S\u00e9racrawl", "name_en": "Avalugg", "stat_hp": "95", "stat_atq": "117", "stat_def": "184", "stat_spa": "44", "stat_spd": "46", "stat_spe": "28", "stat_sum": "514", "type_1": "glace", "type_2": "NA"}, {"regional_number": "365", "national_number": "627", "name_fr": "Furaiglon", "name_en": "Rufflet", "stat_hp": "70", "stat_atq": "83", "stat_def": "50", "stat_spa": "37", "stat_spd": "50", "stat_spe": "60", "stat_sum": "350", "type_1": "normal", "type_2": "vol"}, {"regional_number": "366", "national_number": "628", "name_fr": "Gueriaigle", "name_en": "Braviary", "stat_hp": "100", "stat_atq": "123", "stat_def": "75", "stat_spa": "57", "stat_spd": "75", "stat_spe": "80", "stat_sum": "510", "type_1": "normal", "type_2": "vol"}, {"regional_number": "367", "national_number": "624", "name_fr": "Scalpion", "name_en": "Pawniard", "stat_hp": "45", "stat_atq": "85", "stat_def": "70", "stat_spa": "40", "stat_spd": "40", "stat_spe": "60", "stat_sum": "340", "type_1": "tenebres", "type_2": "acier"}, {"regional_number": "368", "national_number": "625", "name_fr": "Scalproie", "name_en": "Bisharp", "stat_hp": "65", "stat_atq": "125", "stat_def": "100", "stat_spa": "60", "stat_spd": "70", "stat_spe": "70", "stat_sum": "490", "type_1": "tenebres", "type_2": "acier"}, {"regional_number": "369", "national_number": "1008", "name_fr": "Scalpereur", "name_en": "Kingambit", "stat_hp": "100", "stat_atq": "135", "stat_def": "120", "stat_spa": "60", "stat_spd": "85", "stat_spe": "50", "stat_sum": "550", "type_1": "tenebres", "type_2": "acier"}, {"regional_number": "370", "national_number": "633", "name_fr": "Solochi", "name_en": "Deino", "stat_hp": "52", "stat_atq": "65", "stat_def": "50", "stat_spa": "45", "stat_spd": "50", "stat_spe": "38", "stat_sum": "300", "type_1": "tenebres", "type_2": "dragon"}, {"regional_number": "371", "national_number": "634", "name_fr": "Diamat", "name_en": "Zweilous", "stat_hp": "72", "stat_atq": "85", "stat_def": "70", "stat_spa": "65", "stat_spd": "70", "stat_spe": "58", "stat_sum": "420", "type_1": "tenebres", "type_2": "dragon"}, {"regional_number": "372", "national_number": "635", "name_fr": "Trioxhydre", "name_en": "Hydreigon", "stat_hp": "92", "stat_atq": "105", "stat_def": "90", "stat_spa": "125", "stat_spd": "90", "stat_spe": "98", "stat_sum": "600", "type_1": "tenebres", "type_2": "dragon"}, {"regional_number": "373", "national_number": "932", "name_fr": "D\u00e9lestin", "name_en": "Veluza", "stat_hp": "90", "stat_atq": "102", "stat_def": "73", "stat_spa": "78", "stat_spd": "65", "stat_spe": "70", "stat_sum": "478", "type_1": "eau", "type_2": "psy"}, {"regional_number": "374", "national_number": "931", "name_fr": "Oyacata", "name_en": "Dondozo", "stat_hp": "150", "stat_atq": "100", "stat_def": "115", "stat_spa": "65", "stat_spd": "65", "stat_spe": "35", "stat_sum": "530", "type_1": "eau", "type_2": "NA"}, {"regional_number": "375", "national_number": "952", "name_fr": "Nigirigon", "name_en": "Tatsugiri", "stat_hp": "68", "stat_atq": "50", "stat_def": "60", "stat_spa": "120", "stat_spd": "95", "stat_spe": "82", "stat_sum": "475", "type_1": "dragon", "type_2": "eau"}, {"regional_number": "376", "national_number": "978", "name_fr": "Fort-Ivoire", "name_en": "Great Tusk", "stat_hp": "115", "stat_atq": "131", "stat_def": "131", "stat_spa": "53", "stat_spd": "53", "stat_spe": "87", "stat_sum": "570", "type_1": "sol", "type_2": "combat"}, {"regional_number": "377", "national_number": "982", "name_fr": "Hurle-Queue", "name_en": "Scream Tail", "stat_hp": "115", "stat_atq": "65", "stat_def": "99", "stat_spa": "65", "stat_spd": "115", "stat_spe": "111", "stat_sum": "570", "type_1": "fee", "type_2": "psy"}, {"regional_number": "378", "national_number": "979", "name_fr": "Fongus-Furie", "name_en": "Brute Bonnet", "stat_hp": "111", "stat_atq": "127", "stat_def": "99", "stat_spa": "79", "stat_spd": "99", "stat_spe": "55", "stat_sum": "570", "type_1": "plante", "type_2": "tenebres"}, {"regional_number": "379", "national_number": "983", "name_fr": "Flotte-M\u00e8che", "name_en": "Flutter Mane", "stat_hp": "55", "stat_atq": "55", "stat_def": "55", "stat_spa": "135", "stat_spd": "135", "stat_spe": "135", "stat_sum": "570", "type_1": "spectre", "type_2": "fee"}, {"regional_number": "380", "national_number": "984", "name_fr": "Rampe-Ailes", "name_en": "Slither Wing", "stat_hp": "85", "stat_atq": "135", "stat_def": "79", "stat_spa": "85", "stat_spd": "105", "stat_spe": "81", "stat_sum": "570", "type_1": "insecte", "type_2": "combat"}, {"regional_number": "381", "national_number": "981", "name_fr": "Pelage-Sabl\u00e9", "name_en": "Sandy Shocks", "stat_hp": "85", "stat_atq": "81", "stat_def": "97", "stat_spa": "121", "stat_spd": "85", "stat_spe": "101", "stat_sum": "570", "type_1": "electrik", "type_2": "sol"}, {"regional_number": "382", "national_number": "986", "name_fr": "Roue-de-Fer", "name_en": "Iron Treads", "stat_hp": "90", "stat_atq": "112", "stat_def": "120", "stat_spa": "72", "stat_spd": "70", "stat_spe": "106", "stat_sum": "570", "type_1": "sol", "type_2": "acier"}, {"regional_number": "383", "national_number": "992", "name_fr": "Hotte-de-Fer", "name_en": "Iron Bundle", "stat_hp": "56", "stat_atq": "80", "stat_def": "114", "stat_spa": "124", "stat_spd": "60", "stat_spe": "136", "stat_sum": "570", "type_1": "glace", "type_2": "eau"}, {"regional_number": "384", "national_number": "989", "name_fr": "Paume-de-Fer", "name_en": "Iron Hands", "stat_hp": "154", "stat_atq": "140", "stat_def": "108", "stat_spa": "50", "stat_spd": "68", "stat_spe": "50", "stat_sum": "570", "type_1": "combat", "type_2": "electrik"}, {"regional_number": "385", "national_number": "990", "name_fr": "T\u00eates-de-Fer", "name_en": "Iron Jugulis", "stat_hp": "94", "stat_atq": "80", "stat_def": "86", "stat_spa": "122", "stat_spd": "80", "stat_spe": "108", "stat_sum": "570", "type_1": "tenebres", "type_2": "vol"}, {"regional_number": "386", "national_number": "988", "name_fr": "Mite-de-Fer", "name_en": "Iron Moth", "stat_hp": "80", "stat_atq": "70", "stat_def": "60", "stat_spa": "140", "stat_spd": "110", "stat_spe": "110", "stat_sum": "570", "type_1": "feu", "type_2": "poison"}, {"regional_number": "387", "national_number": "991", "name_fr": "err", "name_en": "err", "stat_hp": "0", "stat_atq": "0", "stat_def": "0", "stat_spa": "0", "stat_spd": "0", "stat_spe": "0", "stat_sum": "0", "type_1": "err", "type_2": "NA"}, {"regional_number": "388", "national_number": "949", "name_fr": "Frigodo", "name_en": "Frigibax", "stat_hp": "65", "stat_atq": "75", "stat_def": "45", "stat_spa": "35", "stat_spd": "45", "stat_spe": "55", "stat_sum": "320", "type_1": "dragon", "type_2": "glace"}, {"regional_number": "389", "national_number": "950", "name_fr": "Cryodo", "name_en": "Arctibax", "stat_hp": "90", "stat_atq": "95", "stat_def": "66", "stat_spa": "45", "stat_spd": "65", "stat_spe": "62", "stat_sum": "423", "type_1": "dragon", "type_2": "glace"}, {"regional_number": "390", "national_number": "951", "name_fr": "Glaivodo", "name_en": "Baxcalibur", "stat_hp": "115", "stat_atq": "145", "stat_def": "92", "stat_spa": "75", "stat_spd": "86", "stat_spe": "87", "stat_sum": "600", "type_1": "dragon", "type_2": "glace"}, {"regional_number": "391", "national_number": "976", "name_fr": "Mordudor", "name_en": "Gimmighoul", "stat_hp": "45", "stat_atq": "30", "stat_def": "70", "stat_spa": "75", "stat_spd": "70", "stat_spe": "10", "stat_sum": "300", "type_1": "spectre", "type_2": "NA"}, {"regional_number": "392", "national_number": "977", "name_fr": "Gromago", "name_en": "Gholdengo", "stat_hp": "87", "stat_atq": "60", "stat_def": "95", "stat_spa": "133", "stat_spd": "91", "stat_spe": "84", "stat_sum": "550", "type_1": "acier", "type_2": "spectre"}, {"regional_number": "393", "national_number": "996", "name_fr": "Chongjian", "name_en": "Wo-Chien", "stat_hp": "85", "stat_atq": "85", "stat_def": "100", "stat_spa": "95", "stat_spd": "135", "stat_spe": "70", "stat_sum": "570", "type_1": "tenebres", "type_2": "plante"}, {"regional_number": "394", "national_number": "995", "name_fr": "Baojian", "name_en": "Chien-Pao", "stat_hp": "80", "stat_atq": "120", "stat_def": "80", "stat_spa": "90", "stat_spd": "65", "stat_spe": "135", "stat_sum": "570", "type_1": "tenebres", "type_2": "glace"}, {"regional_number": "395", "national_number": "994", "name_fr": "Dinglu", "name_en": "Ting-Lu", "stat_hp": "155", "stat_atq": "110", "stat_def": "125", "stat_spa": "55", "stat_spd": "80", "stat_spe": "45", "stat_sum": "570", "type_1": "tenebres", "type_2": "sol"}, {"regional_number": "396", "national_number": "997", "name_fr": "Yuyu", "name_en": "Chi-Yu", "stat_hp": "55", "stat_atq": "80", "stat_def": "80", "stat_spa": "135", "stat_spd": "120", "stat_spe": "100", "stat_sum": "570", "type_1": "tenebres", "type_2": "feu"}, {"regional_number": "397", "national_number": "985", "name_fr": "Rugit-Lune", "name_en": "Roaring Moon", "stat_hp": "105", "stat_atq": "139", "stat_def": "71", "stat_spa": "55", "stat_spd": "101", "stat_spe": "119", "stat_sum": "590", "type_1": "dragon", "type_2": "tenebres"}, {"regional_number": "398", "national_number": "993", "name_fr": "Garde-de-Fer", "name_en": "Iron Valiant", "stat_hp": "74", "stat_atq": "130", "stat_def": "90", "stat_spa": "120", "stat_spd": "60", "stat_spe": "116", "stat_sum": "590", "type_1": "fee", "type_2": "combat"}, {"regional_number": "399", "national_number": "998", "name_fr": "Koraidon", "name_en": "Koraidon", "stat_hp": "100", "stat_atq": "135", "stat_def": "115", "stat_spa": "85", "stat_spd": "100", "stat_spe": "135", "stat_sum": "670", "type_1": "combat", "type_2": "dragon"}, {"regional_number": "400", "national_number": "999", "name_fr": "Miraidon", "name_en": "Miraidon", "stat_hp": "100", "stat_atq": "85", "stat_def": "100", "stat_spa": "135", "stat_spd": "115", "stat_spe": "135", "stat_sum": "670", "type_1": "electrik", "type_2": "dragon"}]